;
; File name: 'from_svg'
; File type: gcode
;
; BEGIN PRE
G1F2000
; END PRE

G1 X321.314 Y308.229
G1 X320.199 Y308.284
G1 X319.075 Y308.337
G1 X317.943 Y308.387
G1 X316.803 Y308.433
G1 X315.653 Y308.476
G1 X314.495 Y308.514
G1 X313.326 Y308.547
G1 X312.148 Y308.575
G1 X310.960 Y308.598
G1 X309.760 Y308.615
G1 X308.550 Y308.627
G1 X307.328 Y308.632
G1 X306.095 Y308.630
G1 X304.849 Y308.621
G1 X303.591 Y308.604
G1 X302.321 Y308.580
G1 X301.037 Y308.548
G1 X299.740 Y308.507
G1 X298.429 Y308.457
G1 X297.103 Y308.399
G1 X295.764 Y308.330
G1 X294.409 Y308.252
G1 X293.039 Y308.163
G1 X291.654 Y308.064
G1 X290.253 Y307.954
G1 X288.835 Y307.832
G1 X287.401 Y307.699
G1 X285.950 Y307.554
G1 X284.482 Y307.397
G1 X282.996 Y307.227
G1 X281.492 Y307.043
G1 X279.970 Y306.847
G1 X278.429 Y306.636
G1 X276.869 Y306.412
G1 X275.290 Y306.173
G1 X273.691 Y305.919
G1 X272.071 Y305.650
G1 X270.432 Y305.365
G1 X268.772 Y305.065
G1 X267.090 Y304.748
G1 X265.732 Y305.047
G1 X264.369 Y305.335
G1 X263.003 Y305.613
G1 X261.634 Y305.879
G1 X260.262 Y306.135
G1 X258.886 Y306.380
G1 X257.508 Y306.614
G1 X256.127 Y306.838
G1 X254.744 Y307.050
G1 X253.358 Y307.252
G1 X251.971 Y307.442
G1 X250.581 Y307.622
G1 X249.190 Y307.791
G1 X247.798 Y307.949
G1 X246.404 Y308.096
G1 X245.009 Y308.232
G1 X243.614 Y308.357
G1 X242.218 Y308.470
G1 X240.821 Y308.573
G1 X239.424 Y308.665
G1 X238.027 Y308.746
G1 X236.630 Y308.816
G1 X235.233 Y308.874
G1 X233.837 Y308.922
G1 X232.442 Y308.958
G1 X231.047 Y308.983
G1 X229.654 Y308.997
G1 X228.262 Y309.000
G1 X226.872 Y308.992
G1 X225.483 Y308.972
G1 X224.096 Y308.941
G1 X222.711 Y308.899
G1 X221.328 Y308.846
G1 X219.948 Y308.781
G1 X218.571 Y308.705
G1 X217.196 Y308.618
G1 X215.825 Y308.520
G1 X214.456 Y308.410
G1 X213.092 Y308.289
G1 X211.731 Y308.156
G1 X210.373 Y308.012
G1 X209.020 Y307.857
G1 X207.671 Y307.690
G1 X206.326 Y307.511
G1 X204.987 Y307.322
G1 X203.651 Y307.120
G1 X202.321 Y306.908
G1 X200.996 Y306.683
G1 X199.677 Y306.448
G1 X198.363 Y306.200
G1 X197.055 Y305.941
G1 X195.753 Y305.671
G1 X194.457 Y305.389
G1 X193.168 Y305.095
G1 X191.885 Y304.790
G1 X190.609 Y304.473
G1 X189.340 Y304.144
G1 X188.078 Y303.804
G1 X186.823 Y303.452
G1 X185.576 Y303.088
G1 X184.337 Y302.713
G1 X183.106 Y302.326
G1 X181.883 Y301.927
G1 X180.668 Y301.516
G1 X179.462 Y301.094
G1 X178.264 Y300.659
G1 X177.076 Y300.213
G1 X175.896 Y299.755
G1 X174.726 Y299.285
G1 X173.566 Y298.804
G1 X172.415 Y298.310
G1 X171.056 Y297.706
G1 X169.714 Y297.088
G1 X168.389 Y296.455
G1 X167.082 Y295.808
G1 X165.792 Y295.146
G1 X164.519 Y294.469
G1 X163.264 Y293.779
G1 X162.027 Y293.074
G1 X160.807 Y292.355
G1 X159.605 Y291.622
G1 X158.421 Y290.875
G1 X157.254 Y290.113
G1 X156.106 Y289.338
G1 X154.975 Y288.549
G1 X153.862 Y287.746
G1 X152.767 Y286.930
G1 X151.690 Y286.099
G1 X150.632 Y285.255
G1 X149.591 Y284.398
G1 X148.569 Y283.527
G1 X147.565 Y282.643
G1 X146.579 Y281.745
G1 X145.612 Y280.834
G1 X144.663 Y279.910
G1 X143.732 Y278.972
G1 X142.820 Y278.021
G1 X141.927 Y277.058
G1 X141.052 Y276.081
G1 X140.196 Y275.092
G1 X139.359 Y274.089
G1 X138.541 Y273.074
G1 X137.741 Y272.046
G1 X136.960 Y271.005
G1 X136.198 Y269.952
G1 X135.455 Y268.886
G1 X134.732 Y267.808
G1 X134.027 Y266.717
G1 X133.341 Y265.614
G1 X132.675 Y264.499
G1 X132.028 Y263.371
G1 X131.400 Y262.231
G1 X130.792 Y261.079
G1 X130.203 Y259.916
G1 X129.633 Y258.740
G1 X129.083 Y257.552
G1 X128.553 Y256.352
G1 X128.042 Y255.141
G1 X127.551 Y253.918
G1 X127.080 Y252.683
G1 X126.628 Y251.436
G1 X126.196 Y250.178
G1 X125.784 Y248.909
G1 X125.392 Y247.628
G1 X125.020 Y246.336
G1 X124.668 Y245.032
G1 X124.337 Y243.718
G1 X124.025 Y242.392
G1 X123.734 Y241.055
G1 X114.096 Y235.121
G1 X112.954 Y234.357
G1 X111.885 Y233.521
G1 X110.892 Y232.616
G1 X109.975 Y231.648
G1 X109.138 Y230.622
G1 X108.382 Y229.543
G1 X107.708 Y228.416
G1 X107.119 Y227.246
G1 X106.617 Y226.039
G1 X106.202 Y224.798
G1 X105.878 Y223.528
G1 X105.646 Y222.236
G1 X105.508 Y220.926
G1 X105.466 Y219.603
G1 X105.522 Y218.272
G1 X105.677 Y216.938
G1 X105.933 Y215.605
G1 X106.293 Y214.280
G1 X106.693 Y213.159
G1 X107.182 Y212.080
G1 X107.762 Y211.052
G1 X108.431 Y210.082
G1 X109.190 Y209.177
G1 X110.038 Y208.347
G1 X111.077 Y207.509
G1 X112.167 Y206.784
G1 X113.300 Y206.174
G1 X114.469 Y205.679
G1 X115.668 Y205.299
G1 X116.890 Y205.035
G1 X118.129 Y204.887
G1 X119.376 Y204.857
G1 X120.626 Y204.945
G1 X121.871 Y205.151
G1 X123.105 Y205.476
G1 X151.900 Y214.525
G1 X153.207 Y214.940
G1 X154.517 Y215.343
G1 X155.828 Y215.735
G1 X157.141 Y216.116
G1 X158.455 Y216.485
G1 X159.771 Y216.842
G1 X161.088 Y217.188
G1 X162.407 Y217.523
G1 X163.727 Y217.846
G1 X165.047 Y218.158
G1 X166.369 Y218.459
G1 X167.692 Y218.748
G1 X169.016 Y219.026
G1 X170.341 Y219.293
G1 X171.667 Y219.548
G1 X172.993 Y219.792
G1 X174.320 Y220.025
G1 X175.648 Y220.247
G1 X176.976 Y220.457
G1 X178.304 Y220.656
G1 X179.633 Y220.845
G1 X180.962 Y221.021
G1 X182.291 Y221.187
G1 X183.620 Y221.342
G1 X184.949 Y221.486
G1 X186.278 Y221.618
G1 X187.607 Y221.740
G1 X188.936 Y221.850
G1 X190.265 Y221.950
G1 X191.593 Y222.038
G1 X192.921 Y222.115
G1 X194.248 Y222.182
G1 X195.575 Y222.237
G1 X196.901 Y222.282
G1 X198.226 Y222.315
G1 X199.550 Y222.338
G1 X200.874 Y222.350
G1 X202.196 Y222.351
G1 X203.518 Y222.341
G1 X204.838 Y222.320
G1 X206.158 Y222.289
G1 X207.476 Y222.246
G1 X208.792 Y222.193
G1 X210.107 Y222.130
G1 X211.421 Y222.055
G1 X212.733 Y221.970
G1 X214.043 Y221.874
G1 X215.352 Y221.767
G1 X216.659 Y221.649
G1 X218.033 Y221.293
G1 X219.373 Y220.824
G1 X220.679 Y220.252
G1 X221.949 Y219.586
G1 X223.182 Y218.838
G1 X224.378 Y218.015
G1 X225.534 Y217.129
G1 X226.651 Y216.189
G1 X227.726 Y215.205
G1 X228.759 Y214.187
G1 X229.749 Y213.145
G1 X230.694 Y212.087
G1 X231.593 Y211.026
G1 X232.446 Y209.969
G1 X233.251 Y208.927
G1 X234.008 Y207.909
G1 X234.714 Y206.927
G1 X235.369 Y205.988
G1 X235.972 Y205.104
G1 X236.522 Y204.284
G1 X237.017 Y203.538
G1 X237.482 Y202.838
G1 X238.104 Y201.883
G1 X238.788 Y200.792
G1 X239.517 Y199.596
G1 X240.272 Y198.325
G1 X241.034 Y197.011
G1 X241.784 Y195.684
G1 X242.504 Y194.375
G1 X243.175 Y193.114
G1 X243.778 Y191.934
G1 X244.296 Y190.863
G1 X244.708 Y189.934
G1 X244.997 Y189.177
G1 X245.485 Y187.897
G1 X246.068 Y186.670
G1 X246.741 Y185.501
G1 X247.502 Y184.395
G1 X248.344 Y183.355
G1 X249.265 Y182.386
G1 X250.259 Y181.493
G1 X251.324 Y180.679
G1 X252.454 Y179.950
G1 X253.645 Y179.309
G1 X254.894 Y178.762
G1 X256.092 Y178.344
G1 X257.308 Y178.019
G1 X258.537 Y177.788
G1 X259.774 Y177.649
G1 X261.015 Y177.603
G1 X262.202 Y177.646
G1 X263.383 Y177.772
G1 X264.554 Y177.983
G1 X265.710 Y178.277
G1 X266.848 Y178.654
G1 X267.962 Y179.115
G1 X269.049 Y179.658
G1 X269.490 Y179.898
G1 X270.655 Y180.595
G1 X271.748 Y181.373
G1 X272.766 Y182.226
G1 X273.706 Y183.149
G1 X274.565 Y184.135
G1 X275.342 Y185.181
G1 X276.033 Y186.280
G1 X276.636 Y187.427
G1 X277.148 Y188.617
G1 X277.567 Y189.845
G1 X277.891 Y191.104
G1 X278.116 Y192.391
G1 X278.240 Y193.698
G1 X278.261 Y195.021
G1 X278.176 Y196.355
G1 X277.982 Y197.695
G1 X277.754 Y198.848
G1 X277.498 Y199.991
G1 X277.216 Y201.123
G1 X276.909 Y202.245
G1 X276.578 Y203.357
G1 X277.746 Y202.704
G1 X278.908 Y202.040
G1 X280.064 Y201.365
G1 X281.214 Y200.680
G1 X282.357 Y199.984
G1 X283.494 Y199.278
G1 X284.624 Y198.561
G1 X285.747 Y197.834
G1 X286.864 Y197.096
G1 X287.973 Y196.348
G1 X289.076 Y195.589
G1 X290.172 Y194.820
G1 X291.260 Y194.041
G1 X292.341 Y193.251
G1 X293.415 Y192.450
G1 X294.482 Y191.640
G1 X295.541 Y190.819
G1 X296.593 Y189.987
G1 X297.637 Y189.146
G1 X298.673 Y188.294
G1 X299.701 Y187.431
G1 X300.721 Y186.559
G1 X301.734 Y185.676
G1 X302.738 Y184.783
G1 X303.734 Y183.880
G1 X304.722 Y182.967
G1 X305.701 Y182.044
G1 X306.672 Y181.110
G1 X307.635 Y180.167
G1 X308.589 Y179.213
G1 X309.534 Y178.249
G1 X310.695 Y177.039
G1 X311.833 Y175.823
G1 X312.950 Y174.600
G1 X314.045 Y173.372
G1 X315.119 Y172.139
G1 X316.171 Y170.900
G1 X317.203 Y169.657
G1 X318.213 Y168.409
G1 X319.203 Y167.157
G1 X320.173 Y165.901
G1 X321.122 Y164.641
G1 X322.052 Y163.378
G1 X322.962 Y162.112
G1 X323.852 Y160.843
G1 X324.723 Y159.572
G1 X325.574 Y158.298
G1 X326.407 Y157.023
G1 X327.221 Y155.746
G1 X328.017 Y154.468
G1 X328.794 Y153.189
G1 X329.553 Y151.909
G1 X330.295 Y150.629
G1 X331.018 Y149.349
G1 X331.724 Y148.069
G1 X332.413 Y146.789
G1 X333.085 Y145.510
G1 X333.741 Y144.233
G1 X334.379 Y142.957
G1 X335.001 Y141.682
G1 X335.607 Y140.409
G1 X336.197 Y139.139
G1 X336.771 Y137.871
G1 X337.330 Y136.606
G1 X337.873 Y135.345
G1 X338.401 Y134.087
G1 X338.914 Y132.832
G1 X339.413 Y131.582
G1 X339.897 Y130.335
G1 X340.367 Y129.094
G1 X340.822 Y127.858
G1 X341.264 Y126.626
G1 X341.692 Y125.400
G1 X342.107 Y124.181
G1 X342.508 Y122.967
G1 X342.896 Y121.759
G1 X343.272 Y120.559
G1 X343.634 Y119.365
G1 X343.985 Y118.179
G1 X344.323 Y117.000
G1 X344.649 Y115.829
G1 X344.964 Y114.666
G1 X345.267 Y113.512
G1 X345.558 Y112.366
G1 X345.839 Y111.230
G1 X346.108 Y110.103
G1 X346.367 Y108.986
G1 X346.615 Y107.878
G1 X346.853 Y106.781
G1 X347.081 Y105.695
G1 X347.299 Y104.619
G1 X347.507 Y103.554
G1 X347.706 Y102.501
G1 X347.896 Y101.460
G1 X348.076 Y100.430
G1 X348.248 Y99.413
G1 X348.411 Y98.409
G1 X348.565 Y97.417
G1 X348.684 Y96.064
G1 X348.629 Y94.727
G1 X348.402 Y93.420
G1 X348.008 Y92.156
G1 X347.450 Y90.950
G1 X346.731 Y89.816
G1 X346.024 Y89.104
G1 X345.147 Y88.638
G1 X344.161 Y88.452
G1 X328.510 Y87.904
G1 X327.295 Y87.842
G1 X326.065 Y87.738
G1 X324.822 Y87.595
G1 X323.566 Y87.412
G1 X322.301 Y87.192
G1 X321.027 Y86.935
G1 X319.746 Y86.641
G1 X318.460 Y86.311
G1 X317.170 Y85.948
G1 X315.879 Y85.550
G1 X314.588 Y85.120
G1 X313.298 Y84.658
G1 X312.012 Y84.165
G1 X310.731 Y83.641
G1 X309.456 Y83.089
G1 X308.190 Y82.508
G1 X306.934 Y81.900
G1 X305.690 Y81.265
G1 X304.459 Y80.604
G1 X303.244 Y79.919
G1 X302.045 Y79.210
G1 X300.865 Y78.477
G1 X299.704 Y77.723
G1 X298.566 Y76.947
G1 X297.452 Y76.151
G1 X296.362 Y75.335
G1 X295.300 Y74.500
G1 X294.266 Y73.648
G1 X293.263 Y72.779
G1 X292.291 Y71.894
G1 X291.353 Y70.994
G1 X290.451 Y70.080
G1 X289.586 Y69.152
G1 X288.759 Y68.212
G1 X287.973 Y67.260
G1 X287.229 Y66.297
G1 X286.538 Y65.235
G1 X285.993 Y64.104
G1 X285.596 Y62.922
G1 X285.351 Y61.705
G1 X285.258 Y60.470
G1 X285.322 Y59.233
G1 X285.543 Y58.012
G1 X285.924 Y56.821
G1 X286.454 Y55.699
G1 X287.098 Y54.727
G1 X287.853 Y53.906
G1 X288.717 Y53.239
G1 X289.690 Y52.726
G1 X290.927 Y52.340
G1 X292.155 Y52.205
G1 X293.378 Y52.280
G1 X294.601 Y52.527
G1 X295.830 Y52.903
G1 X297.069 Y53.369
G1 X298.322 Y53.883
G1 X299.090 Y54.201
G1 X299.895 Y54.526
G1 X300.737 Y54.851
G1 X301.620 Y55.168
G1 X302.545 Y55.469
G1 X303.513 Y55.748
G1 X304.526 Y55.996
G1 X305.586 Y56.207
G1 X306.694 Y56.372
G1 X307.853 Y56.485
G1 X309.064 Y56.537
G1 X310.329 Y56.522
G1 X311.649 Y56.432
G1 X313.027 Y56.260
G1 X314.463 Y55.997
G1 X315.960 Y55.637
G1 X317.519 Y55.172
G1 X319.143 Y54.594
G1 X320.832 Y53.897
G1 X322.589 Y53.072
G1 X324.415 Y52.113
G1 X326.312 Y51.011
G1 X327.709 Y50.237
G1 X329.112 Y49.603
G1 X330.517 Y49.103
G1 X331.922 Y48.729
G1 X333.324 Y48.474
G1 X334.719 Y48.330
G1 X336.104 Y48.290
G1 X337.477 Y48.346
G1 X338.834 Y48.492
G1 X340.172 Y48.719
G1 X341.489 Y49.021
G1 X342.781 Y49.391
G1 X344.045 Y49.819
G1 X345.279 Y50.301
G1 X346.478 Y50.827
G1 X347.641 Y51.390
G1 X348.764 Y51.984
G1 X349.844 Y52.601
G1 X350.878 Y53.233
G1 X351.863 Y53.874
G1 X352.796 Y54.515
G1 X353.674 Y55.149
G1 X354.494 Y55.770
G1 X355.253 Y56.369
G1 X355.630 Y55.451
G1 X356.052 Y54.483
G1 X356.521 Y53.472
G1 X357.036 Y52.427
G1 X357.600 Y51.357
G1 X358.213 Y50.271
G1 X358.876 Y49.176
G1 X359.590 Y48.081
G1 X360.357 Y46.995
G1 X361.177 Y45.926
G1 X362.051 Y44.884
G1 X362.981 Y43.875
G1 X363.968 Y42.910
G1 X365.012 Y41.996
G1 X366.114 Y41.142
G1 X367.277 Y40.356
G1 X368.500 Y39.648
G1 X369.785 Y39.025
G1 X371.132 Y38.497
G1 X372.544 Y38.071
G1 X374.021 Y37.756
G1 X375.563 Y37.561
G1 X377.173 Y37.494
G1 X377.508 Y37.497
G1 X377.846 Y37.506
G1 X380.041 Y37.535
G1 X382.105 Y37.475
G1 X384.041 Y37.332
G1 X385.856 Y37.111
G1 X387.554 Y36.818
G1 X389.142 Y36.458
G1 X390.623 Y36.038
G1 X392.004 Y35.562
G1 X393.289 Y35.037
G1 X394.483 Y34.469
G1 X395.592 Y33.862
G1 X396.621 Y33.222
G1 X397.576 Y32.556
G1 X398.460 Y31.868
G1 X399.280 Y31.165
G1 X400.040 Y30.452
G1 X400.747 Y29.735
G1 X401.404 Y29.019
G1 X402.018 Y28.310
G1 X402.592 Y27.614
G1 X403.134 Y26.936
G1 X403.647 Y26.282
G1 X404.525 Y25.173
G1 X405.416 Y24.118
G1 X406.346 Y23.158
G1 X407.342 Y22.329
G1 X408.431 Y21.669
G1 X409.640 Y21.216
G1 X410.995 Y21.009
G1 X411.156 Y21.002
G1 X411.318 Y21.000
G1 X412.506 Y21.113
G1 X413.671 Y21.450
G1 X414.812 Y22.011
G1 X415.926 Y22.794
G1 X417.012 Y23.798
G1 X417.875 Y24.842
G1 X418.565 Y25.983
G1 X419.075 Y27.204
G1 X419.400 Y28.485
G1 X419.534 Y29.808
G1 X419.469 Y31.154
G1 X419.462 Y31.225
G1 X419.271 Y32.508
G1 X419.033 Y33.795
G1 X418.749 Y35.085
G1 X418.420 Y36.377
G1 X418.047 Y37.669
G1 X417.632 Y38.960
G1 X417.177 Y40.249
G1 X416.683 Y41.534
G1 X416.151 Y42.816
G1 X415.584 Y44.091
G1 X414.981 Y45.360
G1 X414.346 Y46.620
G1 X413.679 Y47.871
G1 X412.982 Y49.112
G1 X412.256 Y50.340
G1 X411.503 Y51.556
G1 X410.724 Y52.758
G1 X409.921 Y53.944
G1 X409.095 Y55.113
G1 X408.247 Y56.265
G1 X407.380 Y57.398
G1 X406.495 Y58.510
G1 X405.592 Y59.601
G1 X404.674 Y60.669
G1 X403.742 Y61.714
G1 X402.798 Y62.733
G1 X401.842 Y63.725
G1 X400.877 Y64.691
G1 X399.904 Y65.627
G1 X398.925 Y66.534
G1 X397.940 Y67.409
G1 X396.952 Y68.252
G1 X395.961 Y69.062
G1 X394.970 Y69.836
G1 X393.979 Y70.575
G1 X392.990 Y71.276
G1 X392.006 Y71.939
G1 X391.026 Y72.562
G1 X383.801 Y78.060
G1 X382.820 Y78.874
G1 X381.913 Y79.765
G1 X381.084 Y80.726
G1 X380.337 Y81.752
G1 X379.677 Y82.835
G1 X379.107 Y83.970
G1 X378.633 Y85.150
G1 X378.258 Y86.368
G1 X378.148 Y87.251
G1 X378.211 Y88.266
G1 X378.395 Y89.398
G1 X378.649 Y90.632
G1 X378.759 Y91.152
G1 X378.866 Y91.673
G1 X379.127 Y92.985
G1 X379.382 Y94.297
G1 X379.631 Y95.609
G1 X379.875 Y96.920
G1 X380.111 Y98.230
G1 X380.342 Y99.539
G1 X380.567 Y100.848
G1 X380.786 Y102.155
G1 X380.998 Y103.461
G1 X381.204 Y104.766
G1 X381.404 Y106.069
G1 X381.598 Y107.371
G1 X381.786 Y108.671
G1 X381.967 Y109.970
G1 X382.142 Y111.266
G1 X382.311 Y112.561
G1 X382.474 Y113.854
G1 X382.630 Y115.144
G1 X382.780 Y116.433
G1 X382.924 Y117.719
G1 X383.062 Y119.002
G1 X383.193 Y120.283
G1 X383.318 Y121.562
G1 X383.270 Y122.764
G1 X382.917 Y123.872
G1 X382.298 Y124.837
G1 X381.454 Y125.613
G1 X380.425 Y126.152
G1 X379.248 Y126.406
G1 X379.246 Y126.406
G1 X378.074 Y126.343
G1 X376.995 Y125.991
G1 X376.053 Y125.385
G1 X375.293 Y124.564
G1 X374.759 Y123.564
G1 X374.494 Y122.421
G1 X374.368 Y121.125
G1 X374.235 Y119.826
G1 X374.095 Y118.524
G1 X373.948 Y117.220
G1 X373.794 Y115.913
G1 X373.634 Y114.604
G1 X373.467 Y113.293
G1 X373.294 Y111.979
G1 X373.114 Y110.663
G1 X372.927 Y109.345
G1 X372.734 Y108.026
G1 X372.534 Y106.704
G1 X372.327 Y105.381
G1 X372.114 Y104.057
G1 X371.895 Y102.731
G1 X371.668 Y101.404
G1 X371.436 Y100.075
G1 X371.197 Y98.746
G1 X370.951 Y97.416
G1 X370.699 Y96.084
G1 X370.440 Y94.753
G1 X370.175 Y93.420
G1 X370.077 Y92.946
G1 X369.978 Y92.474
G1 X369.762 Y91.439
G1 X369.559 Y90.342
G1 X369.395 Y89.186
G1 X369.299 Y87.980
G1 X369.296 Y86.729
G1 X369.415 Y85.439
G1 X369.682 Y84.117
G1 X370.059 Y82.829
G1 X370.507 Y81.567
G1 X371.023 Y80.333
G1 X371.606 Y79.130
G1 X372.254 Y77.962
G1 X372.964 Y76.832
G1 X373.735 Y75.742
G1 X374.565 Y74.696
G1 X375.452 Y73.696
G1 X376.393 Y72.746
G1 X377.387 Y71.848
G1 X378.432 Y71.005
G1 X385.834 Y65.373
G1 X386.210 Y65.116
G1 X387.174 Y64.506
G1 X388.146 Y63.846
G1 X389.124 Y63.138
G1 X390.106 Y62.385
G1 X391.090 Y61.588
G1 X392.074 Y60.749
G1 X393.056 Y59.871
G1 X394.033 Y58.955
G1 X395.004 Y58.003
G1 X395.965 Y57.018
G1 X396.916 Y56.001
G1 X397.853 Y54.954
G1 X398.776 Y53.880
G1 X399.681 Y52.780
G1 X400.566 Y51.657
G1 X401.430 Y50.512
G1 X402.270 Y49.348
G1 X403.084 Y48.166
G1 X403.870 Y46.969
G1 X404.625 Y45.758
G1 X405.348 Y44.536
G1 X406.037 Y43.305
G1 X406.688 Y42.066
G1 X407.301 Y40.822
G1 X407.873 Y39.574
G1 X408.402 Y38.325
G1 X408.885 Y37.077
G1 X409.321 Y35.832
G1 X409.708 Y34.591
G1 X410.042 Y33.357
G1 X410.323 Y32.132
G1 X409.852 Y32.729
G1 X409.349 Y33.353
G1 X408.814 Y34.001
G1 X408.243 Y34.669
G1 X407.635 Y35.351
G1 X406.986 Y36.046
G1 X406.294 Y36.747
G1 X405.556 Y37.453
G1 X404.771 Y38.159
G1 X403.936 Y38.861
G1 X403.049 Y39.554
G1 X402.106 Y40.236
G1 X401.106 Y40.902
G1 X400.046 Y41.549
G1 X398.923 Y42.172
G1 X397.736 Y42.768
G1 X396.481 Y43.332
G1 X395.157 Y43.862
G1 X393.761 Y44.352
G1 X392.290 Y44.799
G1 X390.743 Y45.199
G1 X389.116 Y45.549
G1 X387.407 Y45.844
G1 X385.613 Y46.080
G1 X383.733 Y46.254
G1 X381.764 Y46.361
G1 X379.703 Y46.399
G1 X377.548 Y46.362
G1 X377.382 Y46.358
G1 X377.218 Y46.356
G1 X375.542 Y46.504
G1 X373.974 Y46.926
G1 X372.512 Y47.586
G1 X371.154 Y48.453
G1 X369.899 Y49.491
G1 X368.746 Y50.666
G1 X367.693 Y51.944
G1 X366.739 Y53.293
G1 X365.881 Y54.676
G1 X365.120 Y56.061
G1 X364.452 Y57.414
G1 X363.878 Y58.700
G1 X363.395 Y59.886
G1 X363.001 Y60.937
G1 X362.696 Y61.820
G1 X362.478 Y62.500
G1 X362.346 Y62.944
G1 X362.297 Y63.117
G1 X361.644 Y65.632
G1 X354.233 Y67.566
G1 X352.431 Y65.710
G1 X352.300 Y65.579
G1 X351.959 Y65.250
G1 X351.424 Y64.754
G1 X350.712 Y64.123
G1 X349.836 Y63.387
G1 X348.815 Y62.579
G1 X347.663 Y61.729
G1 X346.396 Y60.868
G1 X345.030 Y60.029
G1 X343.582 Y59.242
G1 X342.067 Y58.538
G1 X340.500 Y57.949
G1 X338.898 Y57.506
G1 X337.277 Y57.241
G1 X335.653 Y57.185
G1 X334.040 Y57.368
G1 X332.456 Y57.823
G1 X330.917 Y58.581
G1 X329.048 Y59.674
G1 X327.226 Y60.655
G1 X325.449 Y61.529
G1 X323.719 Y62.302
G1 X322.034 Y62.976
G1 X320.394 Y63.558
G1 X318.800 Y64.051
G1 X317.250 Y64.461
G1 X315.745 Y64.791
G1 X314.284 Y65.047
G1 X312.868 Y65.234
G1 X311.495 Y65.355
G1 X310.166 Y65.416
G1 X308.881 Y65.420
G1 X307.638 Y65.374
G1 X306.439 Y65.281
G1 X305.282 Y65.147
G1 X304.168 Y64.975
G1 X303.096 Y64.770
G1 X302.066 Y64.537
G1 X301.078 Y64.282
G1 X300.132 Y64.007
G1 X299.226 Y63.718
G1 X298.362 Y63.420
G1 X297.539 Y63.117
G1 X296.756 Y62.814
G1 X296.013 Y62.516
G1 X295.311 Y62.227
G1 X296.103 Y63.138
G1 X296.947 Y64.038
G1 X297.839 Y64.927
G1 X298.776 Y65.802
G1 X299.755 Y66.662
G1 X300.775 Y67.506
G1 X301.831 Y68.332
G1 X302.921 Y69.138
G1 X304.043 Y69.924
G1 X305.194 Y70.687
G1 X306.370 Y71.427
G1 X307.570 Y72.141
G1 X308.790 Y72.829
G1 X310.027 Y73.490
G1 X311.280 Y74.120
G1 X312.544 Y74.720
G1 X313.818 Y75.287
G1 X315.098 Y75.820
G1 X316.382 Y76.319
G1 X317.667 Y76.780
G1 X318.950 Y77.203
G1 X320.229 Y77.587
G1 X321.500 Y77.930
G1 X322.761 Y78.230
G1 X324.010 Y78.486
G1 X325.242 Y78.697
G1 X326.457 Y78.860
G1 X327.650 Y78.976
G1 X328.819 Y79.042
G1 X344.470 Y79.589
G1 X345.711 Y79.695
G1 X346.919 Y79.922
G1 X348.089 Y80.266
G1 X349.213 Y80.723
G1 X350.283 Y81.291
G1 X351.293 Y81.964
G1 X352.234 Y82.739
G1 X353.101 Y83.612
G1 X353.885 Y84.579
G1 X354.642 Y85.696
G1 X355.314 Y86.854
G1 X355.900 Y88.048
G1 X356.398 Y89.275
G1 X356.808 Y90.532
G1 X357.129 Y91.813
G1 X357.360 Y93.116
G1 X357.500 Y94.435
G1 X357.548 Y95.768
G1 X357.503 Y97.110
G1 X357.365 Y98.458
G1 X357.292 Y100.060
G1 X357.212 Y101.655
G1 X357.125 Y103.243
G1 X357.031 Y104.823
G1 X356.930 Y106.395
G1 X356.821 Y107.960
G1 X356.706 Y109.517
G1 X356.584 Y111.067
G1 X356.454 Y112.609
G1 X356.317 Y114.144
G1 X356.174 Y115.671
G1 X356.023 Y117.191
G1 X355.865 Y118.703
G1 X355.700 Y120.207
G1 X355.528 Y121.704
G1 X355.349 Y123.193
G1 X355.163 Y124.674
G1 X354.970 Y126.148
G1 X354.770 Y127.614
G1 X354.563 Y129.072
G1 X354.348 Y130.523
G1 X354.127 Y131.966
G1 X353.899 Y133.402
G1 X353.663 Y134.829
G1 X353.421 Y136.249
G1 X353.172 Y137.661
G1 X352.915 Y139.066
G1 X352.652 Y140.462
G1 X352.381 Y141.851
G1 X352.104 Y143.233
G1 X351.819 Y144.606
G1 X351.528 Y145.971
G1 X351.229 Y147.329
G1 X350.924 Y148.679
G1 X350.611 Y150.021
G1 X350.291 Y151.355
G1 X349.965 Y152.682
G1 X349.631 Y154.000
G1 X349.291 Y155.311
G1 X348.943 Y156.614
G1 X348.589 Y157.909
G1 X348.227 Y159.196
G1 X347.859 Y160.475
G1 X347.483 Y161.746
G1 X347.101 Y163.009
G1 X346.712 Y164.264
G1 X346.315 Y165.512
G1 X345.912 Y166.751
G1 X345.502 Y167.982
G1 X345.085 Y169.206
G1 X344.660 Y170.421
G1 X344.229 Y171.629
G1 X343.791 Y172.828
G1 X343.346 Y174.019
G1 X342.894 Y175.203
G1 X342.435 Y176.378
G1 X341.969 Y177.545
G1 X341.496 Y178.704
G1 X341.017 Y179.855
G1 X340.530 Y180.998
G1 X340.036 Y182.133
G1 X339.536 Y183.260
G1 X339.029 Y184.378
G1 X338.514 Y185.489
G1 X337.993 Y186.591
G1 X337.465 Y187.685
G1 X336.930 Y188.771
G1 X336.388 Y189.849
G1 X335.839 Y190.919
G1 X335.283 Y191.980
G1 X334.720 Y193.034
G1 X334.151 Y194.079
G1 X333.574 Y195.115
G1 X332.991 Y196.144
G1 X332.401 Y197.164
G1 X331.803 Y198.176
G1 X331.199 Y199.180
G1 X330.588 Y200.176
G1 X329.971 Y201.163
G1 X329.346 Y202.142
G1 X328.715 Y203.113
G1 X328.076 Y204.075
G1 X327.431 Y205.029
G1 X326.647 Y206.163
G1 X325.854 Y207.285
G1 X325.051 Y208.396
G1 X324.238 Y209.494
G1 X323.415 Y210.581
G1 X322.582 Y211.656
G1 X321.739 Y212.719
G1 X320.887 Y213.771
G1 X320.025 Y214.810
G1 X319.153 Y215.838
G1 X318.272 Y216.853
G1 X317.381 Y217.857
G1 X316.480 Y218.849
G1 X315.569 Y219.828
G1 X314.649 Y220.796
G1 X313.719 Y221.752
G1 X312.780 Y222.696
G1 X311.831 Y223.628
G1 X310.872 Y224.547
G1 X309.904 Y225.455
G1 X308.926 Y226.351
G1 X307.939 Y227.234
G1 X306.942 Y228.106
G1 X305.936 Y228.965
G1 X304.921 Y229.813
G1 X303.895 Y230.648
G1 X302.861 Y231.471
G1 X301.817 Y232.282
G1 X300.764 Y233.081
G1 X299.701 Y233.867
G1 X298.629 Y234.642
G1 X297.547 Y235.404
G1 X296.457 Y236.154
G1 X295.357 Y236.892
G1 X294.247 Y237.618
G1 X293.129 Y238.331
G1 X292.001 Y239.032
G1 X290.864 Y239.721
G1 X289.718 Y240.397
G1 X288.562 Y241.061
G1 X287.397 Y241.713
G1 X286.224 Y242.353
G1 X285.041 Y242.980
G1 X283.848 Y243.595
G1 X282.647 Y244.197
G1 X281.437 Y244.787
G1 X280.218 Y245.365
G1 X278.989 Y245.930
G1 X277.752 Y246.483
G1 X276.505 Y247.023
G1 X275.250 Y247.551
G1 X273.985 Y248.067
G1 X272.712 Y248.569
G1 X271.430 Y249.060
G1 X270.249 Y249.326
G1 X269.081 Y249.264
G1 X267.985 Y248.904
G1 X267.017 Y248.272
G1 X266.235 Y247.399
G1 X265.696 Y246.313
G1 X265.696 Y246.313
G1 X265.472 Y245.170
G1 X265.549 Y244.046
G1 X265.902 Y242.992
G1 X266.506 Y242.057
G1 X267.336 Y241.291
G1 X268.367 Y240.743
G1 X269.608 Y240.269
G1 X270.838 Y239.782
G1 X272.060 Y239.284
G1 X273.271 Y238.773
G1 X274.474 Y238.250
G1 X275.666 Y237.715
G1 X276.849 Y237.168
G1 X278.023 Y236.609
G1 X279.187 Y236.038
G1 X280.341 Y235.455
G1 X281.486 Y234.860
G1 X282.622 Y234.252
G1 X283.748 Y233.633
G1 X284.864 Y233.001
G1 X285.971 Y232.358
G1 X287.068 Y231.702
G1 X288.155 Y231.035
G1 X289.233 Y230.355
G1 X290.302 Y229.663
G1 X291.361 Y228.960
G1 X292.410 Y228.244
G1 X293.450 Y227.516
G1 X294.480 Y226.776
G1 X295.500 Y226.024
G1 X296.511 Y225.261
G1 X297.513 Y224.485
G1 X298.505 Y223.697
G1 X299.487 Y222.897
G1 X300.459 Y222.085
G1 X301.422 Y221.261
G1 X302.376 Y220.426
G1 X303.320 Y219.578
G1 X304.254 Y218.718
G1 X305.178 Y217.846
G1 X306.093 Y216.963
G1 X306.999 Y216.067
G1 X307.895 Y215.159
G1 X308.781 Y214.240
G1 X309.657 Y213.308
G1 X310.524 Y212.365
G1 X311.382 Y211.409
G1 X312.229 Y210.442
G1 X313.067 Y209.463
G1 X313.896 Y208.471
G1 X314.714 Y207.468
G1 X315.524 Y206.453
G1 X316.323 Y205.426
G1 X317.113 Y204.387
G1 X317.893 Y203.337
G1 X318.664 Y202.274
G1 X319.425 Y201.199
G1 X320.176 Y200.113
G1 X320.917 Y199.014
G1 X321.649 Y197.904
G1 X322.372 Y196.782
G1 X323.084 Y195.648
G1 X323.787 Y194.502
G1 X324.481 Y193.344
G1 X325.164 Y192.175
G1 X325.838 Y190.993
G1 X326.503 Y189.800
G1 X327.157 Y188.594
G1 X327.802 Y187.377
G1 X328.437 Y186.149
G1 X329.063 Y184.908
G1 X329.679 Y183.655
G1 X330.285 Y182.391
G1 X330.881 Y181.115
G1 X331.468 Y179.827
G1 X332.045 Y178.527
G1 X332.613 Y177.215
G1 X333.171 Y175.892
G1 X333.719 Y174.556
G1 X334.257 Y173.209
G1 X334.786 Y171.850
G1 X335.304 Y170.480
G1 X335.814 Y169.097
G1 X336.313 Y167.703
G1 X336.803 Y166.297
G1 X337.283 Y164.879
G1 X337.753 Y163.450
G1 X338.214 Y162.008
G1 X338.665 Y160.555
G1 X339.106 Y159.090
G1 X339.537 Y157.614
G1 X339.959 Y156.125
G1 X340.371 Y154.625
G1 X340.773 Y153.114
G1 X341.165 Y151.590
G1 X341.548 Y150.055
G1 X341.921 Y148.508
G1 X342.284 Y146.949
G1 X341.727 Y148.064
G1 X341.158 Y149.180
G1 X340.577 Y150.296
G1 X339.984 Y151.414
G1 X339.378 Y152.532
G1 X338.761 Y153.650
G1 X338.130 Y154.769
G1 X337.487 Y155.887
G1 X336.831 Y157.006
G1 X336.162 Y158.124
G1 X335.480 Y159.242
G1 X334.785 Y160.359
G1 X334.076 Y161.475
G1 X333.354 Y162.591
G1 X332.619 Y163.705
G1 X331.870 Y164.818
G1 X331.106 Y165.929
G1 X330.329 Y167.039
G1 X329.538 Y168.146
G1 X328.733 Y169.252
G1 X327.913 Y170.355
G1 X327.079 Y171.456
G1 X326.230 Y172.555
G1 X325.366 Y173.651
G1 X324.488 Y174.744
G1 X323.595 Y175.833
G1 X322.686 Y176.920
G1 X321.762 Y178.003
G1 X320.823 Y179.083
G1 X319.868 Y180.158
G1 X318.898 Y181.230
G1 X317.912 Y182.298
G1 X316.910 Y183.361
G1 X315.892 Y184.420
G1 X314.957 Y185.375
G1 X314.013 Y186.321
G1 X313.061 Y187.258
G1 X312.101 Y188.187
G1 X311.133 Y189.107
G1 X310.157 Y190.017
G1 X309.173 Y190.919
G1 X308.182 Y191.812
G1 X307.183 Y192.696
G1 X306.176 Y193.570
G1 X305.161 Y194.436
G1 X304.139 Y195.293
G1 X303.109 Y196.140
G1 X302.072 Y196.978
G1 X301.027 Y197.807
G1 X299.975 Y198.627
G1 X298.916 Y199.438
G1 X297.849 Y200.239
G1 X296.776 Y201.031
G1 X295.695 Y201.813
G1 X294.607 Y202.586
G1 X293.513 Y203.350
G1 X292.411 Y204.104
G1 X291.302 Y204.848
G1 X290.187 Y205.584
G1 X289.065 Y206.309
G1 X287.936 Y207.025
G1 X286.801 Y207.731
G1 X285.659 Y208.428
G1 X284.511 Y209.115
G1 X283.356 Y209.792
G1 X282.195 Y210.459
G1 X281.027 Y211.117
G1 X279.853 Y211.764
G1 X278.673 Y212.402
G1 X277.487 Y213.030
G1 X276.295 Y213.648
G1 X275.096 Y214.256
G1 X273.892 Y214.854
G1 X272.682 Y215.442
G1 X271.466 Y216.019
G1 X270.244 Y216.587
G1 X269.017 Y217.145
G1 X267.783 Y217.692
G1 X266.545 Y218.229
G1 X265.300 Y218.756
G1 X264.051 Y219.273
G1 X262.795 Y219.779
G1 X261.535 Y220.275
G1 X260.269 Y220.761
G1 X258.998 Y221.236
G1 X257.721 Y221.701
G1 X256.440 Y222.155
G1 X255.153 Y222.599
G1 X253.862 Y223.032
G1 X252.565 Y223.455
G1 X251.264 Y223.867
G1 X249.957 Y224.268
G1 X248.646 Y224.659
G1 X247.331 Y225.039
G1 X246.010 Y225.408
G1 X244.685 Y225.767
G1 X243.356 Y226.114
G1 X242.022 Y226.451
G1 X240.683 Y226.777
G1 X239.341 Y227.092
G1 X238.079 Y227.377
G1 X236.816 Y227.652
G1 X235.551 Y227.917
G1 X234.284 Y228.172
G1 X233.015 Y228.416
G1 X231.744 Y228.651
G1 X230.472 Y228.876
G1 X229.198 Y229.090
G1 X227.923 Y229.295
G1 X226.646 Y229.490
G1 X225.367 Y229.675
G1 X224.087 Y229.850
G1 X222.806 Y230.014
G1 X221.523 Y230.169
G1 X220.239 Y230.314
G1 X218.954 Y230.450
G1 X217.668 Y230.575
G1 X216.381 Y230.690
G1 X215.093 Y230.796
G1 X214.982 Y230.806
G1 X214.870 Y230.815
G1 X214.870 Y230.814
G1 X213.527 Y230.911
G1 X212.184 Y230.998
G1 X210.839 Y231.074
G1 X209.494 Y231.139
G1 X208.148 Y231.194
G1 X206.801 Y231.237
G1 X205.454 Y231.270
G1 X204.106 Y231.292
G1 X202.758 Y231.304
G1 X201.410 Y231.304
G1 X200.061 Y231.294
G1 X198.711 Y231.273
G1 X197.362 Y231.242
G1 X196.012 Y231.199
G1 X194.663 Y231.146
G1 X193.313 Y231.082
G1 X191.964 Y231.008
G1 X190.614 Y230.922
G1 X189.265 Y230.826
G1 X187.916 Y230.720
G1 X186.568 Y230.602
G1 X185.219 Y230.474
G1 X183.872 Y230.335
G1 X182.524 Y230.185
G1 X181.178 Y230.025
G1 X179.832 Y229.854
G1 X178.487 Y229.672
G1 X177.142 Y229.480
G1 X175.799 Y229.276
G1 X174.456 Y229.063
G1 X173.114 Y228.838
G1 X171.774 Y228.603
G1 X170.435 Y228.357
G1 X169.096 Y228.100
G1 X167.759 Y227.833
G1 X166.424 Y227.555
G1 X165.090 Y227.266
G1 X163.757 Y226.967
G1 X162.426 Y226.657
G1 X161.096 Y226.336
G1 X159.768 Y226.004
G1 X158.442 Y225.662
G1 X157.117 Y225.310
G1 X155.795 Y224.946
G1 X154.474 Y224.572
G1 X153.156 Y224.188
G1 X151.839 Y223.792
G1 X150.525 Y223.386
G1 X149.212 Y222.969
G1 X120.449 Y213.932
G1 X119.634 Y213.757
G1 X118.811 Y213.734
G1 X119.673 Y214.058
G1 X120.574 Y214.404
G1 X121.513 Y214.770
G1 X122.488 Y215.157
G1 X123.497 Y215.565
G1 X124.539 Y215.994
G1 X125.612 Y216.445
G1 X126.715 Y216.916
G1 X127.845 Y217.409
G1 X129.001 Y217.922
G1 X130.182 Y218.457
G1 X131.385 Y219.014
G1 X132.609 Y219.592
G1 X133.852 Y220.191
G1 X135.112 Y220.812
G1 X136.389 Y221.455
G1 X137.679 Y222.119
G1 X138.982 Y222.805
G1 X140.296 Y223.512
G1 X141.619 Y224.242
G1 X142.949 Y224.993
G1 X144.285 Y225.766
G1 X145.625 Y226.562
G1 X146.967 Y227.379
G1 X148.310 Y228.219
G1 X149.651 Y229.080
G1 X150.820 Y229.832
G1 X151.994 Y230.571
G1 X153.174 Y231.295
G1 X154.360 Y232.006
G1 X155.551 Y232.704
G1 X156.747 Y233.387
G1 X157.949 Y234.057
G1 X159.156 Y234.713
G1 X160.368 Y235.355
G1 X161.585 Y235.983
G1 X162.807 Y236.597
G1 X164.033 Y237.197
G1 X165.264 Y237.784
G1 X166.500 Y238.356
G1 X167.740 Y238.914
G1 X168.985 Y239.458
G1 X170.233 Y239.988
G1 X171.486 Y240.504
G1 X172.743 Y241.005
G1 X174.003 Y241.493
G1 X175.268 Y241.966
G1 X176.536 Y242.424
G1 X177.807 Y242.869
G1 X179.082 Y243.299
G1 X180.360 Y243.714
G1 X181.642 Y244.115
G1 X182.926 Y244.502
G1 X184.214 Y244.874
G1 X185.504 Y245.232
G1 X186.797 Y245.575
G1 X188.093 Y245.903
G1 X189.392 Y246.217
G1 X190.693 Y246.516
G1 X191.996 Y246.801
G1 X193.301 Y247.070
G1 X194.609 Y247.325
G1 X195.918 Y247.565
G1 X197.230 Y247.790
G1 X198.543 Y248.000
G1 X199.858 Y248.196
G1 X201.174 Y248.376
G1 X202.492 Y248.541
G1 X203.811 Y248.692
G1 X205.132 Y248.827
G1 X206.453 Y248.947
G1 X207.776 Y249.052
G1 X209.099 Y249.142
G1 X210.424 Y249.217
G1 X211.749 Y249.277
G1 X213.074 Y249.321
G1 X214.401 Y249.350
G1 X215.810 Y249.367
G1 X217.215 Y249.373
G1 X218.615 Y249.368
G1 X220.011 Y249.353
G1 X221.401 Y249.326
G1 X222.787 Y249.288
G1 X224.167 Y249.239
G1 X225.543 Y249.179
G1 X226.912 Y249.109
G1 X228.277 Y249.027
G1 X229.635 Y248.935
G1 X230.988 Y248.831
G1 X232.335 Y248.717
G1 X233.677 Y248.592
G1 X235.012 Y248.455
G1 X236.341 Y248.308
G1 X237.664 Y248.151
G1 X238.980 Y247.982
G1 X240.290 Y247.802
G1 X241.593 Y247.612
G1 X242.890 Y247.411
G1 X244.180 Y247.199
G1 X245.462 Y246.976
G1 X246.629 Y246.922
G1 X247.734 Y247.159
G1 X248.730 Y247.658
G1 X249.570 Y248.388
G1 X250.207 Y249.318
G1 X250.594 Y250.418
G1 X250.595 Y250.420
G1 X250.682 Y251.627
G1 X250.452 Y252.774
G1 X249.940 Y253.808
G1 X249.181 Y254.675
G1 X248.209 Y255.321
G1 X247.060 Y255.695
G1 X245.811 Y255.912
G1 X244.557 Y256.120
G1 X243.296 Y256.318
G1 X242.030 Y256.507
G1 X240.758 Y256.686
G1 X239.480 Y256.855
G1 X238.197 Y257.014
G1 X236.909 Y257.164
G1 X235.615 Y257.304
G1 X234.316 Y257.434
G1 X233.011 Y257.555
G1 X231.702 Y257.665
G1 X230.387 Y257.766
G1 X229.068 Y257.858
G1 X227.744 Y257.939
G1 X226.415 Y258.010
G1 X225.082 Y258.072
G1 X223.744 Y258.124
G1 X222.402 Y258.166
G1 X221.055 Y258.199
G1 X219.704 Y258.221
G1 X218.349 Y258.234
G1 X216.989 Y258.237
G1 X215.626 Y258.230
G1 X214.259 Y258.213
G1 X212.938 Y258.184
G1 X211.618 Y258.142
G1 X210.298 Y258.086
G1 X208.979 Y258.016
G1 X207.661 Y257.931
G1 X206.343 Y257.833
G1 X205.027 Y257.721
G1 X203.712 Y257.594
G1 X202.398 Y257.454
G1 X201.085 Y257.300
G1 X199.773 Y257.133
G1 X198.463 Y256.951
G1 X197.155 Y256.756
G1 X195.848 Y256.547
G1 X194.542 Y256.324
G1 X193.239 Y256.088
G1 X191.937 Y255.837
G1 X190.638 Y255.574
G1 X189.340 Y255.296
G1 X188.045 Y255.006
G1 X186.752 Y254.701
G1 X185.461 Y254.383
G1 X184.173 Y254.052
G1 X182.888 Y253.707
G1 X181.605 Y253.349
G1 X180.325 Y252.977
G1 X179.047 Y252.592
G1 X177.773 Y252.194
G1 X176.501 Y251.782
G1 X175.233 Y251.357
G1 X173.968 Y250.919
G1 X172.706 Y250.468
G1 X171.448 Y250.004
G1 X170.193 Y249.526
G1 X168.942 Y249.035
G1 X167.694 Y248.531
G1 X166.450 Y248.014
G1 X165.210 Y247.484
G1 X163.975 Y246.941
G1 X162.743 Y246.386
G1 X161.515 Y245.817
G1 X160.291 Y245.235
G1 X159.072 Y244.640
G1 X157.857 Y244.033
G1 X156.647 Y243.412
G1 X155.442 Y242.779
G1 X154.241 Y242.133
G1 X153.045 Y241.474
G1 X151.853 Y240.803
G1 X150.667 Y240.119
G1 X149.486 Y239.422
G1 X148.310 Y238.713
G1 X147.139 Y237.991
G1 X145.974 Y237.256
G1 X144.814 Y236.509
G1 X143.433 Y235.624
G1 X142.049 Y234.763
G1 X140.664 Y233.926
G1 X139.279 Y233.113
G1 X137.899 Y232.325
G1 X136.524 Y231.560
G1 X135.157 Y230.820
G1 X133.800 Y230.104
G1 X132.456 Y229.412
G1 X131.127 Y228.744
G1 X129.815 Y228.101
G1 X128.523 Y227.481
G1 X127.253 Y226.886
G1 X126.006 Y226.314
G1 X124.786 Y225.767
G1 X123.595 Y225.244
G1 X122.435 Y224.745
G1 X121.308 Y224.270
G1 X120.216 Y223.820
G1 X119.163 Y223.393
G1 X118.149 Y222.990
G1 X117.179 Y222.612
G1 X116.252 Y222.257
G1 X115.373 Y221.927
G1 X114.543 Y221.621
G1 X114.880 Y222.804
G1 X115.370 Y223.933
G1 X116.007 Y224.990
G1 X116.786 Y225.959
G1 X117.700 Y226.826
G1 X118.745 Y227.573
G1 X131.706 Y235.553
G1 X132.065 Y237.488
G1 X132.398 Y239.180
G1 X132.765 Y240.840
G1 X133.163 Y242.469
G1 X133.593 Y244.067
G1 X134.053 Y245.634
G1 X134.543 Y247.169
G1 X135.062 Y248.675
G1 X135.608 Y250.151
G1 X136.182 Y251.596
G1 X136.782 Y253.013
G1 X137.407 Y254.400
G1 X138.058 Y255.758
G1 X138.732 Y257.087
G1 X139.429 Y258.389
G1 X140.149 Y259.662
G1 X140.890 Y260.907
G1 X141.651 Y262.125
G1 X142.433 Y263.316
G1 X143.233 Y264.480
G1 X144.052 Y265.618
G1 X144.888 Y266.729
G1 X145.741 Y267.814
G1 X146.609 Y268.874
G1 X147.493 Y269.908
G1 X148.390 Y270.917
G1 X149.301 Y271.902
G1 X150.224 Y272.862
G1 X151.159 Y273.797
G1 X152.105 Y274.709
G1 X153.061 Y275.597
G1 X154.027 Y276.462
G1 X155.000 Y277.304
G1 X155.982 Y278.123
G1 X156.970 Y278.920
G1 X157.964 Y279.694
G1 X158.963 Y280.447
G1 X159.967 Y281.178
G1 X160.974 Y281.888
G1 X161.984 Y282.577
G1 X162.996 Y283.245
G1 X164.009 Y283.893
G1 X165.023 Y284.521
G1 X166.036 Y285.128
G1 X167.047 Y285.717
G1 X168.057 Y286.286
G1 X169.063 Y286.837
G1 X170.066 Y287.368
G1 X171.064 Y287.882
G1 X172.057 Y288.377
G1 X173.044 Y288.855
G1 X174.023 Y289.315
G1 X174.995 Y289.758
G1 X175.958 Y290.184
G1 X177.110 Y290.678
G1 X178.271 Y291.158
G1 X179.443 Y291.626
G1 X180.625 Y292.082
G1 X181.817 Y292.525
G1 X183.018 Y292.955
G1 X184.229 Y293.373
G1 X185.448 Y293.778
G1 X186.676 Y294.170
G1 X187.913 Y294.551
G1 X189.158 Y294.918
G1 X190.411 Y295.273
G1 X191.673 Y295.616
G1 X192.942 Y295.946
G1 X194.218 Y296.264
G1 X195.502 Y296.569
G1 X196.792 Y296.862
G1 X198.090 Y297.143
G1 X199.394 Y297.411
G1 X200.704 Y297.667
G1 X202.021 Y297.911
G1 X203.343 Y298.142
G1 X204.672 Y298.361
G1 X206.005 Y298.568
G1 X207.344 Y298.762
G1 X208.688 Y298.945
G1 X210.037 Y299.115
G1 X211.390 Y299.273
G1 X212.748 Y299.419
G1 X214.110 Y299.552
G1 X215.476 Y299.674
G1 X216.845 Y299.783
G1 X218.218 Y299.881
G1 X219.595 Y299.966
G1 X220.974 Y300.039
G1 X222.356 Y300.100
G1 X223.741 Y300.150
G1 X225.128 Y300.187
G1 X226.517 Y300.212
G1 X227.908 Y300.225
G1 X229.301 Y300.227
G1 X230.695 Y300.216
G1 X232.091 Y300.193
G1 X233.487 Y300.159
G1 X234.885 Y300.113
G1 X236.283 Y300.055
G1 X237.681 Y299.985
G1 X239.080 Y299.903
G1 X240.478 Y299.809
G1 X241.876 Y299.704
G1 X243.274 Y299.587
G1 X244.671 Y299.458
G1 X246.067 Y299.318
G1 X247.462 Y299.165
G1 X248.855 Y299.002
G1 X250.247 Y298.826
G1 X251.636 Y298.639
G1 X253.024 Y298.440
G1 X254.410 Y298.230
G1 X255.793 Y298.007
G1 X257.173 Y297.774
G1 X258.550 Y297.529
G1 X259.924 Y297.272
G1 X261.295 Y297.004
G1 X262.662 Y296.724
G1 X264.025 Y296.433
G1 X265.384 Y296.131
G1 X266.739 Y295.816
G1 X268.090 Y295.491
G1 X269.435 Y295.154
G1 X270.776 Y294.806
G1 X272.111 Y294.446
G1 X273.441 Y294.075
G1 X274.766 Y293.693
G1 X276.084 Y293.300
G1 X277.397 Y292.895
G1 X278.703 Y292.478
G1 X280.003 Y292.051
G1 X281.296 Y291.612
G1 X282.582 Y291.163
G1 X283.860 Y290.702
G1 X285.132 Y290.229
G1 X286.396 Y289.746
G1 X287.652 Y289.252
G1 X288.900 Y288.746
G1 X290.139 Y288.229
G1 X291.370 Y287.701
G1 X292.593 Y287.162
G1 X293.806 Y286.612
G1 X295.010 Y286.052
G1 X296.205 Y285.480
G1 X297.390 Y284.897
G1 X298.565 Y284.303
G1 X299.731 Y283.698
G1 X300.886 Y283.082
G1 X302.030 Y282.455
G1 X303.164 Y281.818
G1 X304.287 Y281.169
G1 X305.398 Y280.510
G1 X306.498 Y279.839
G1 X307.587 Y279.158
G1 X307.701 Y279.088
G1 X309.131 Y278.230
G1 X310.542 Y277.361
G1 X311.934 Y276.482
G1 X313.307 Y275.593
G1 X314.661 Y274.693
G1 X315.997 Y273.784
G1 X317.313 Y272.865
G1 X318.612 Y271.937
G1 X319.892 Y270.999
G1 X321.153 Y270.051
G1 X322.397 Y269.095
G1 X323.622 Y268.129
G1 X324.830 Y267.155
G1 X326.020 Y266.172
G1 X327.192 Y265.180
G1 X328.347 Y264.180
G1 X329.484 Y263.171
G1 X330.604 Y262.154
G1 X331.707 Y261.130
G1 X332.793 Y260.097
G1 X333.862 Y259.056
G1 X334.913 Y258.008
G1 X335.949 Y256.952
G1 X336.967 Y255.889
G1 X337.970 Y254.819
G1 X338.955 Y253.741
G1 X339.925 Y252.657
G1 X340.879 Y251.566
G1 X341.816 Y250.468
G1 X342.738 Y249.364
G1 X343.644 Y248.253
G1 X344.534 Y247.136
G1 X345.408 Y246.013
G1 X346.268 Y244.884
G1 X347.112 Y243.749
G1 X347.941 Y242.608
G1 X348.754 Y241.462
G1 X349.553 Y240.310
G1 X350.337 Y239.153
G1 X351.107 Y237.991
G1 X351.862 Y236.824
G1 X352.602 Y235.652
G1 X353.328 Y234.476
G1 X354.040 Y233.295
G1 X354.738 Y232.109
G1 X355.421 Y230.919
G1 X356.091 Y229.725
G1 X356.747 Y228.527
G1 X357.390 Y227.325
G1 X358.019 Y226.119
G1 X358.635 Y224.910
G1 X359.237 Y223.697
G1 X359.826 Y222.481
G1 X360.402 Y221.262
G1 X360.966 Y220.040
G1 X361.516 Y218.814
G1 X362.054 Y217.586
G1 X362.579 Y216.356
G1 X363.092 Y215.123
G1 X363.592 Y213.887
G1 X364.081 Y212.650
G1 X364.557 Y211.410
G1 X365.021 Y210.168
G1 X365.474 Y208.925
G1 X365.914 Y207.680
G1 X366.344 Y206.433
G1 X366.761 Y205.185
G1 X367.167 Y203.936
G1 X367.562 Y202.686
G1 X367.946 Y201.434
G1 X368.319 Y200.182
G1 X368.681 Y198.929
G1 X369.032 Y197.676
G1 X369.373 Y196.423
G1 X369.703 Y195.169
G1 X370.022 Y193.915
G1 X370.332 Y192.661
G1 X370.631 Y191.407
G1 X370.920 Y190.153
G1 X371.199 Y188.900
G1 X371.468 Y187.647
G1 X371.728 Y186.396
G1 X371.978 Y185.145
G1 X372.218 Y183.895
G1 X372.449 Y182.646
G1 X372.671 Y181.398
G1 X372.884 Y180.152
G1 X373.088 Y178.908
G1 X373.283 Y177.665
G1 X373.469 Y176.424
G1 X373.647 Y175.185
G1 X373.816 Y173.948
G1 X373.976 Y172.713
G1 X374.129 Y171.481
G1 X374.273 Y170.251
G1 X374.409 Y169.024
G1 X374.537 Y167.800
G1 X374.657 Y166.578
G1 X374.770 Y165.360
G1 X374.875 Y164.145
G1 X374.973 Y162.933
G1 X375.063 Y161.725
G1 X375.146 Y160.521
G1 X375.223 Y159.320
G1 X375.292 Y158.123
G1 X375.354 Y156.931
G1 X375.409 Y155.742
G1 X375.458 Y154.558
G1 X375.500 Y153.378
G1 X375.536 Y152.203
G1 X375.566 Y151.033
G1 X375.590 Y149.868
G1 X375.607 Y148.707
G1 X375.619 Y147.552
G1 X375.625 Y146.402
G1 X375.625 Y145.258
G1 X375.619 Y144.119
G1 X375.608 Y142.986
G1 X375.749 Y141.818
G1 X376.171 Y140.762
G1 X376.837 Y139.859
G1 X377.708 Y139.153
G1 X378.743 Y138.683
G1 X379.903 Y138.493
G1 X379.903 Y138.493
G1 X381.101 Y138.620
G1 X382.184 Y139.046
G1 X383.107 Y139.729
G1 X383.826 Y140.624
G1 X384.296 Y141.690
G1 X384.472 Y142.882
G1 X384.485 Y144.359
G1 X384.490 Y145.832
G1 X384.485 Y147.299
G1 X384.471 Y148.761
G1 X384.449 Y150.219
G1 X384.417 Y151.672
G1 X384.376 Y153.120
G1 X384.327 Y154.562
G1 X384.268 Y156.000
G1 X384.201 Y157.433
G1 X384.125 Y158.861
G1 X384.039 Y160.284
G1 X383.945 Y161.702
G1 X383.842 Y163.115
G1 X383.730 Y164.522
G1 X383.609 Y165.925
G1 X383.479 Y167.323
G1 X383.340 Y168.715
G1 X383.192 Y170.102
G1 X383.036 Y171.485
G1 X382.870 Y172.862
G1 X382.695 Y174.233
G1 X382.512 Y175.600
G1 X382.320 Y176.961
G1 X382.119 Y178.317
G1 X381.908 Y179.668
G1 X381.689 Y181.014
G1 X381.462 Y182.354
G1 X381.225 Y183.689
G1 X380.979 Y185.018
G1 X380.725 Y186.342
G1 X380.461 Y187.661
G1 X380.189 Y188.975
G1 X379.908 Y190.283
G1 X379.618 Y191.585
G1 X379.319 Y192.882
G1 X379.011 Y194.174
G1 X378.695 Y195.460
G1 X378.369 Y196.741
G1 X378.035 Y198.016
G1 X377.692 Y199.286
G1 X377.340 Y200.550
G1 X376.979 Y201.808
G1 X376.610 Y203.061
G1 X376.231 Y204.308
G1 X375.844 Y205.550
G1 X375.448 Y206.786
G1 X375.043 Y208.016
G1 X374.629 Y209.241
G1 X374.206 Y210.460
G1 X373.775 Y211.673
G1 X373.335 Y212.881
G1 X372.886 Y214.082
G1 X372.428 Y215.278
G1 X371.961 Y216.468
G1 X371.486 Y217.653
G1 X371.002 Y218.831
G1 X370.509 Y220.004
G1 X370.007 Y221.170
G1 X369.497 Y222.331
G1 X368.977 Y223.486
G1 X368.395 Y224.751
G1 X367.803 Y226.008
G1 X367.200 Y227.256
G1 X366.588 Y228.496
G1 X365.965 Y229.727
G1 X365.332 Y230.951
G1 X364.688 Y232.165
G1 X364.035 Y233.371
G1 X363.372 Y234.569
G1 X362.698 Y235.758
G1 X362.014 Y236.939
G1 X361.320 Y238.111
G1 X360.617 Y239.275
G1 X359.903 Y240.430
G1 X359.179 Y241.577
G1 X358.445 Y242.715
G1 X357.701 Y243.845
G1 X356.947 Y244.966
G1 X356.183 Y246.078
G1 X355.409 Y247.182
G1 X354.625 Y248.277
G1 X353.831 Y249.364
G1 X353.027 Y250.442
G1 X352.213 Y251.511
G1 X351.389 Y252.572
G1 X350.556 Y253.624
G1 X349.712 Y254.667
G1 X348.859 Y255.702
G1 X347.996 Y256.728
G1 X347.122 Y257.745
G1 X346.239 Y258.753
G1 X345.347 Y259.753
G1 X344.444 Y260.744
G1 X343.532 Y261.726
G1 X342.610 Y262.699
G1 X341.678 Y263.664
G1 X340.736 Y264.620
G1 X340.725 Y264.791
G1 X340.692 Y265.352
G1 X340.668 Y266.055
G1 X340.671 Y266.889
G1 X340.719 Y267.845
G1 X340.831 Y268.912
G1 X341.025 Y270.079
G1 X341.320 Y271.337
G1 X341.734 Y272.674
G1 X342.285 Y274.080
G1 X342.993 Y275.544
G1 X343.875 Y277.057
G1 X344.949 Y278.607
G1 X346.235 Y280.185
G1 X347.060 Y281.042
G1 X347.954 Y281.818
G1 X348.919 Y282.513
G1 X349.957 Y283.127
G1 X351.067 Y283.662
G1 X352.251 Y284.117
G1 X353.511 Y284.493
G1 X354.847 Y284.790
G1 X356.260 Y285.009
G1 X357.752 Y285.150
G1 X359.323 Y285.213
G1 X360.490 Y285.329
G1 X361.607 Y285.637
G1 X362.644 Y286.129
G1 X363.570 Y286.794
G1 X364.354 Y287.625
G1 X364.965 Y288.613
G1 X365.396 Y289.791
G1 X365.576 Y290.991
G1 X365.517 Y292.180
G1 X365.229 Y293.325
G1 X364.723 Y294.394
G1 X364.009 Y295.353
G1 X363.100 Y296.169
G1 X361.921 Y297.003
G1 X360.729 Y297.797
G1 X359.524 Y298.553
G1 X358.308 Y299.270
G1 X357.080 Y299.951
G1 X355.842 Y300.596
G1 X354.594 Y301.206
G1 X353.338 Y301.782
G1 X352.073 Y302.326
G1 X350.801 Y302.838
G1 X349.523 Y303.319
G1 X348.239 Y303.771
G1 X346.950 Y304.194
G1 X345.657 Y304.590
G1 X344.360 Y304.959
G1 X343.061 Y305.302
G1 X341.760 Y305.621
G1 X340.458 Y305.917
G1 X339.155 Y306.190
G1 X337.853 Y306.441
G1 X336.552 Y306.672
G1 X335.253 Y306.884
G1 X333.956 Y307.078
G1 X332.664 Y307.254
G1 X331.375 Y307.414
G1 X330.092 Y307.558
G1 X328.814 Y307.688
G1 X327.543 Y307.806
G1 X326.280 Y307.910
G1 X325.024 Y308.004
G1 X323.778 Y308.088
G1 X322.541 Y308.162
G1 X321.314 Y308.229
G1 X320.862 Y299.376
G1 X322.199 Y299.303
G1 X323.539 Y299.221
G1 X324.882 Y299.129
G1 X326.227 Y299.025
G1 X327.573 Y298.908
G1 X328.920 Y298.777
G1 X330.266 Y298.630
G1 X331.612 Y298.466
G1 X332.955 Y298.283
G1 X334.296 Y298.080
G1 X335.634 Y297.857
G1 X336.967 Y297.610
G1 X338.296 Y297.340
G1 X339.620 Y297.045
G1 X340.937 Y296.724
G1 X342.248 Y296.374
G1 X343.550 Y295.995
G1 X344.844 Y295.586
G1 X346.129 Y295.145
G1 X347.404 Y294.671
G1 X348.669 Y294.162
G1 X349.922 Y293.617
G1 X351.163 Y293.035
G1 X349.902 Y292.670
G1 X348.682 Y292.250
G1 X347.504 Y291.776
G1 X346.367 Y291.248
G1 X345.271 Y290.666
G1 X344.217 Y290.030
G1 X343.205 Y289.339
G1 X342.236 Y288.595
G1 X341.308 Y287.797
G1 X340.424 Y286.946
G1 X339.583 Y286.041
G1 X338.687 Y284.983
G1 X337.846 Y283.909
G1 X337.060 Y282.819
G1 X336.329 Y281.711
G1 X335.653 Y280.588
G1 X335.032 Y279.449
G1 X334.465 Y278.294
G1 X333.954 Y277.123
G1 X333.497 Y275.937
G1 X333.095 Y274.736
G1 X332.748 Y273.520
G1 X332.456 Y272.290
G1 X331.472 Y273.121
G1 X330.480 Y273.944
G1 X329.478 Y274.759
G1 X328.468 Y275.566
G1 X327.450 Y276.365
G1 X326.422 Y277.155
G1 X325.386 Y277.937
G1 X324.341 Y278.711
G1 X323.288 Y279.477
G1 X322.226 Y280.235
G1 X321.155 Y280.984
G1 X320.076 Y281.725
G1 X318.987 Y282.458
G1 X317.891 Y283.183
G1 X316.785 Y283.899
G1 X315.671 Y284.607
G1 X314.549 Y285.306
G1 X313.418 Y285.997
G1 X312.278 Y286.680
G1 X311.190 Y287.360
G1 X310.092 Y288.030
G1 X308.982 Y288.689
G1 X307.862 Y289.338
G1 X306.732 Y289.977
G1 X305.591 Y290.605
G1 X304.441 Y291.223
G1 X303.280 Y291.831
G1 X302.110 Y292.428
G1 X300.931 Y293.015
G1 X299.742 Y293.592
G1 X298.545 Y294.158
G1 X297.339 Y294.714
G1 X296.124 Y295.260
G1 X294.901 Y295.795
G1 X293.669 Y296.320
G1 X292.430 Y296.835
G1 X291.183 Y297.339
G1 X289.928 Y297.833
G1 X288.667 Y298.317
G1 X287.398 Y298.790
G1 X288.929 Y298.938
G1 X290.441 Y299.072
G1 X291.934 Y299.192
G1 X293.408 Y299.300
G1 X294.864 Y299.395
G1 X296.303 Y299.478
G1 X297.724 Y299.550
G1 X299.129 Y299.610
G1 X300.517 Y299.660
G1 X301.889 Y299.699
G1 X303.246 Y299.729
G1 X304.587 Y299.749
G1 X305.914 Y299.761
G1 X307.227 Y299.764
G1 X308.526 Y299.759
G1 X309.812 Y299.747
G1 X311.085 Y299.728
G1 X312.346 Y299.702
G1 X313.595 Y299.670
G1 X314.832 Y299.633
G1 X316.058 Y299.590
G1 X317.274 Y299.542
G1 X318.479 Y299.491
G1 X319.675 Y299.435
G1 X320.862 Y299.376
