;
; File name: 'from_svg'
; File type: gcode
;
; BEGIN PRE
G1F2000
; END PRE

G1 X491.367 Y96.240
G1 X490.068 Y96.459
G1 X488.739 Y96.566
G1 X487.395 Y96.578
G1 X486.052 Y96.514
G1 X484.724 Y96.390
G1 X483.069 Y96.353
G1 X481.782 Y96.681
G1 X480.869 Y97.406
G1 X480.336 Y98.561
G1 X480.187 Y100.178
G1 X479.848 Y101.883
G1 X478.820 Y102.757
G1 X477.242 Y103.022
G1 X475.815 Y103.034
G1 X474.388 Y103.023
G1 X472.960 Y103.010
G1 X471.534 Y103.016
G1 X470.110 Y103.061
G1 X468.417 Y103.271
G1 X467.127 Y103.722
G1 X466.241 Y104.427
G1 X465.762 Y105.400
G1 X465.690 Y106.655
G1 X466.026 Y108.205
G1 X466.379 Y109.941
G1 X466.133 Y111.207
G1 X465.235 Y112.094
G1 X463.633 Y112.691
G1 X462.338 Y113.050
G1 X461.059 Y113.468
G1 X459.787 Y113.922
G1 X458.518 Y114.385
G1 X457.244 Y114.832
G1 X455.657 Y115.562
G1 X454.711 Y116.469
G1 X454.407 Y117.544
G1 X454.748 Y118.782
G1 X455.738 Y120.174
G1 X456.574 Y121.484
G1 X456.897 Y122.890
G1 X456.736 Y124.292
G1 X456.121 Y125.590
G1 X455.079 Y126.684
G1 X453.639 Y127.474
G1 X451.731 Y128.206
G1 X450.563 Y128.792
G1 X450.112 Y129.377
G1 X450.351 Y130.106
G1 X451.255 Y131.121
G1 X452.799 Y132.567
G1 X453.624 Y133.637
G1 X454.216 Y134.889
G1 X455.071 Y136.143
G1 X456.252 Y136.672
G1 X457.693 Y136.611
G1 X458.951 Y136.344
G1 X460.206 Y136.055
G1 X461.459 Y135.758
G1 X462.712 Y135.462
G1 X463.970 Y135.181
G1 X464.744 Y135.133
G1 X465.682 Y135.164
G1 X465.971 Y136.844
G1 X466.811 Y137.803
G1 X468.092 Y138.209
G1 X469.706 Y138.228
G1 X470.981 Y138.144
G1 X472.263 Y138.083
G1 X473.542 Y138.072
G1 X474.808 Y138.138
G1 X476.052 Y138.310
G1 X477.196 Y138.797
G1 X478.245 Y139.680
G1 X479.014 Y140.736
G1 X479.197 Y141.846
G1 X478.632 Y142.831
G1 X477.533 Y143.704
G1 X476.173 Y144.533
G1 X474.802 Y145.313
G1 X473.419 Y146.045
G1 X472.025 Y146.729
G1 X470.621 Y147.367
G1 X469.205 Y147.957
G1 X467.779 Y148.502
G1 X466.343 Y149.001
G1 X464.897 Y149.454
G1 X463.441 Y149.863
G1 X461.976 Y150.227
G1 X460.502 Y150.547
G1 X459.019 Y150.824
G1 X457.527 Y151.058
G1 X456.028 Y151.250
G1 X454.520 Y151.399
G1 X453.004 Y151.507
G1 X451.481 Y151.574
G1 X449.951 Y151.600
G1 X448.414 Y151.586
G1 X446.870 Y151.533
G1 X445.320 Y151.440
G1 X443.763 Y151.309
G1 X442.245 Y151.144
G1 X440.729 Y150.948
G1 X439.217 Y150.723
G1 X437.706 Y150.474
G1 X436.198 Y150.204
G1 X434.692 Y149.918
G1 X433.186 Y149.618
G1 X431.682 Y149.308
G1 X430.178 Y148.992
G1 X428.674 Y148.675
G1 X427.170 Y148.359
G1 X425.665 Y148.048
G1 X424.158 Y147.746
G1 X422.651 Y147.457
G1 X421.141 Y147.184
G1 X419.626 Y146.918
G1 X418.110 Y146.649
G1 X416.595 Y146.380
G1 X415.079 Y146.111
G1 X413.562 Y145.847
G1 X412.044 Y145.587
G1 X410.526 Y145.334
G1 X409.007 Y145.090
G1 X407.487 Y144.858
G1 X405.965 Y144.638
G1 X404.442 Y144.433
G1 X402.918 Y144.245
G1 X401.392 Y144.076
G1 X399.865 Y143.927
G1 X398.368 Y143.857
G1 X396.903 Y143.921
G1 X395.473 Y144.119
G1 X394.080 Y144.451
G1 X392.726 Y144.919
G1 X391.416 Y145.522
G1 X390.150 Y146.260
G1 X388.932 Y147.136
G1 X387.764 Y148.148
G1 X386.648 Y149.298
G1 X385.635 Y150.429
G1 X384.618 Y151.557
G1 X383.597 Y152.681
G1 X382.572 Y153.803
G1 X381.543 Y154.921
G1 X380.511 Y156.035
G1 X379.475 Y157.147
G1 X378.435 Y158.255
G1 X377.392 Y159.360
G1 X376.345 Y160.461
G1 X375.295 Y161.559
G1 X374.241 Y162.654
G1 X373.184 Y163.745
G1 X372.124 Y164.833
G1 X371.061 Y165.918
G1 X369.994 Y166.999
G1 X368.924 Y168.077
G1 X367.812 Y169.180
G1 X366.688 Y170.267
G1 X365.552 Y171.341
G1 X364.405 Y172.399
G1 X363.246 Y173.444
G1 X362.077 Y174.476
G1 X360.896 Y175.494
G1 X359.706 Y176.499
G1 X358.506 Y177.491
G1 X357.295 Y178.470
G1 X356.075 Y179.437
G1 X354.846 Y180.393
G1 X353.608 Y181.336
G1 X352.362 Y182.269
G1 X351.107 Y183.190
G1 X349.844 Y184.100
G1 X348.573 Y185.000
G1 X347.294 Y185.890
G1 X346.009 Y186.769
G1 X344.716 Y187.639
G1 X343.417 Y188.500
G1 X342.112 Y189.351
G1 X340.800 Y190.194
G1 X339.482 Y191.028
G1 X338.159 Y191.854
G1 X336.831 Y192.671
G1 X335.529 Y193.459
G1 X334.220 Y194.236
G1 X332.904 Y195.001
G1 X331.583 Y195.758
G1 X330.257 Y196.507
G1 X328.927 Y197.248
G1 X327.594 Y197.984
G1 X326.257 Y198.716
G1 X324.919 Y199.444
G1 X323.579 Y200.169
G1 X322.239 Y200.894
G1 X320.899 Y201.619
G1 X319.559 Y202.346
G1 X318.221 Y203.075
G1 X316.886 Y203.807
G1 X315.553 Y204.545
G1 X314.224 Y205.288
G1 X312.899 Y206.039
G1 X311.580 Y206.798
G1 X310.266 Y207.567
G1 X308.958 Y208.347
G1 X307.552 Y209.145
G1 X306.124 Y209.866
G1 X304.676 Y210.515
G1 X303.212 Y211.102
G1 X301.732 Y211.633
G1 X300.240 Y212.118
G1 X298.736 Y212.562
G1 X297.224 Y212.975
G1 X295.705 Y213.364
G1 X294.182 Y213.737
G1 X292.657 Y214.101
G1 X291.131 Y214.465
G1 X289.607 Y214.836
G1 X288.087 Y215.222
G1 X286.573 Y215.631
G1 X285.095 Y216.043
G1 X283.615 Y216.450
G1 X282.133 Y216.851
G1 X280.649 Y217.245
G1 X279.163 Y217.632
G1 X277.676 Y218.010
G1 X276.186 Y218.380
G1 X274.694 Y218.740
G1 X273.200 Y219.090
G1 X271.704 Y219.428
G1 X270.206 Y219.755
G1 X268.706 Y220.069
G1 X267.206 Y220.357
G1 X265.699 Y220.615
G1 X264.188 Y220.847
G1 X262.672 Y221.061
G1 X261.154 Y221.263
G1 X259.635 Y221.459
G1 X258.116 Y221.656
G1 X256.597 Y221.860
G1 X255.081 Y222.078
G1 X253.569 Y222.316
G1 X252.012 Y222.561
G1 X250.455 Y222.782
G1 X248.897 Y222.981
G1 X247.338 Y223.159
G1 X245.779 Y223.316
G1 X244.219 Y223.454
G1 X242.658 Y223.574
G1 X241.097 Y223.676
G1 X239.536 Y223.762
G1 X237.974 Y223.833
G1 X236.411 Y223.890
G1 X234.849 Y223.935
G1 X233.286 Y223.967
G1 X231.722 Y223.988
G1 X230.159 Y223.999
G1 X228.595 Y224.002
G1 X227.031 Y223.997
G1 X225.467 Y223.985
G1 X223.903 Y223.968
G1 X222.338 Y223.946
G1 X220.774 Y223.921
G1 X219.210 Y223.893
G1 X217.646 Y223.864
G1 X216.082 Y223.835
G1 X214.518 Y223.806
G1 X212.955 Y223.779
G1 X211.391 Y223.755
G1 X209.828 Y223.735
G1 X208.265 Y223.719
G1 X206.703 Y223.710
G1 X205.136 Y223.692
G1 X203.570 Y223.652
G1 X202.004 Y223.592
G1 X200.439 Y223.513
G1 X198.873 Y223.420
G1 X197.308 Y223.314
G1 X195.742 Y223.197
G1 X194.177 Y223.071
G1 X192.611 Y222.940
G1 X191.046 Y222.805
G1 X189.480 Y222.669
G1 X187.915 Y222.535
G1 X186.349 Y222.403
G1 X184.783 Y222.278
G1 X183.216 Y222.160
G1 X181.650 Y222.054
G1 X180.083 Y221.960
G1 X178.515 Y221.881
G1 X177.037 Y221.854
G1 X175.555 Y221.895
G1 X174.072 Y221.984
G1 X172.587 Y222.102
G1 X171.101 Y222.231
G1 X169.616 Y222.350
G1 X168.131 Y222.441
G1 X166.649 Y222.484
G1 X165.169 Y222.461
G1 X163.427 Y222.548
G1 X161.882 Y222.928
G1 X160.499 Y223.550
G1 X159.248 Y224.364
G1 X158.095 Y225.317
G1 X157.009 Y226.358
G1 X155.955 Y227.436
G1 X154.902 Y228.499
G1 X153.818 Y229.496
G1 X152.643 Y230.523
G1 X151.494 Y231.575
G1 X150.371 Y232.651
G1 X149.272 Y233.749
G1 X148.195 Y234.869
G1 X147.141 Y236.009
G1 X146.108 Y237.168
G1 X145.094 Y238.345
G1 X144.099 Y239.539
G1 X143.122 Y240.750
G1 X142.161 Y241.974
G1 X141.216 Y243.213
G1 X140.285 Y244.464
G1 X139.368 Y245.726
G1 X138.463 Y246.998
G1 X137.570 Y248.280
G1 X136.686 Y249.569
G1 X135.819 Y250.846
G1 X134.953 Y252.124
G1 X134.086 Y253.402
G1 X133.220 Y254.680
G1 X132.353 Y255.958
G1 X131.485 Y257.235
G1 X130.617 Y258.512
G1 X129.746 Y259.787
G1 X128.874 Y261.061
G1 X128.000 Y262.334
G1 X127.123 Y263.605
G1 X126.243 Y264.873
G1 X125.359 Y266.140
G1 X124.473 Y267.403
G1 X123.582 Y268.664
G1 X122.686 Y269.921
G1 X121.786 Y271.175
G1 X120.881 Y272.425
G1 X119.931 Y273.668
G1 X118.930 Y274.857
G1 X117.884 Y275.994
G1 X116.794 Y277.082
G1 X115.664 Y278.124
G1 X114.497 Y279.125
G1 X113.296 Y280.085
G1 X112.065 Y281.009
G1 X110.806 Y281.900
G1 X109.524 Y282.761
G1 X108.220 Y283.594
G1 X106.898 Y284.404
G1 X105.562 Y285.192
G1 X104.214 Y285.963
G1 X102.853 Y286.664
G1 X101.448 Y287.289
G1 X100.021 Y287.874
G1 X98.593 Y288.461
G1 X97.186 Y289.086
G1 X95.824 Y289.634
G1 X94.444 Y290.018
G1 X93.050 Y290.269
G1 X91.644 Y290.416
G1 X90.229 Y290.490
G1 X88.809 Y290.520
G1 X87.387 Y290.537
G1 X85.965 Y290.572
G1 X84.548 Y290.653
G1 X82.902 Y290.751
G1 X81.277 Y290.779
G1 X79.671 Y290.737
G1 X78.085 Y290.627
G1 X76.519 Y290.449
G1 X74.971 Y290.206
G1 X73.442 Y289.899
G1 X71.933 Y289.529
G1 X70.441 Y289.097
G1 X68.969 Y288.605
G1 X67.514 Y288.054
G1 X66.078 Y287.445
G1 X64.660 Y286.779
G1 X63.259 Y286.059
G1 X61.876 Y285.284
G1 X60.510 Y284.457
G1 X59.162 Y283.579
G1 X58.011 Y282.760
G1 X56.890 Y281.871
G1 X55.805 Y280.921
G1 X54.763 Y279.915
G1 X53.772 Y278.860
G1 X52.838 Y277.762
G1 X51.968 Y276.628
G1 X51.170 Y275.465
G1 X50.256 Y274.134
G1 X49.290 Y272.885
G1 X48.273 Y271.715
G1 X47.208 Y270.620
G1 X46.095 Y269.597
G1 X44.936 Y268.643
G1 X43.734 Y267.754
G1 X42.489 Y266.927
G1 X41.203 Y266.158
G1 X39.878 Y265.444
G1 X38.515 Y264.781
G1 X37.116 Y264.167
G1 X35.683 Y263.597
G1 X34.217 Y263.069
G1 X33.041 Y262.449
G1 X32.126 Y261.539
G1 X31.457 Y260.405
G1 X31.016 Y259.118
G1 X30.786 Y257.745
G1 X30.750 Y256.356
G1 X30.941 Y254.788
G1 X31.328 Y253.306
G1 X31.830 Y251.878
G1 X32.368 Y250.471
G1 X32.862 Y249.053
G1 X33.232 Y247.592
G1 X33.636 Y246.381
G1 X34.301 Y245.223
G1 X35.097 Y244.161
G1 X35.958 Y243.126
G1 X36.837 Y242.104
G1 X37.734 Y241.096
G1 X38.648 Y240.105
G1 X39.580 Y239.131
G1 X40.529 Y238.177
G1 X41.400 Y237.496
G1 X42.407 Y236.960
G1 X43.461 Y236.552
G1 X44.818 Y236.083
G1 X46.152 Y235.578
G1 X47.453 Y235.022
G1 X48.712 Y234.399
G1 X49.923 Y233.691
G1 X51.075 Y232.884
G1 X52.161 Y231.961
G1 X53.172 Y230.905
G1 X54.100 Y229.701
G1 X54.936 Y228.333
G1 X55.672 Y226.783
G1 X56.280 Y228.504
G1 X57.056 Y229.393
G1 X58.088 Y229.543
G1 X59.466 Y229.047
G1 X60.792 Y228.274
G1 X61.938 Y227.377
G1 X62.926 Y226.373
G1 X63.777 Y225.278
G1 X64.512 Y224.106
G1 X65.151 Y222.875
G1 X65.716 Y221.599
G1 X66.228 Y220.295
G1 X66.709 Y218.977
G1 X67.199 Y217.572
G1 X67.669 Y216.158
G1 X68.120 Y214.737
G1 X68.553 Y213.310
G1 X68.969 Y211.877
G1 X69.369 Y210.439
G1 X69.754 Y208.997
G1 X70.125 Y207.551
G1 X70.484 Y206.104
G1 X70.831 Y204.654
G1 X71.174 Y203.115
G1 X71.485 Y201.568
G1 X71.772 Y200.016
G1 X72.044 Y198.460
G1 X72.309 Y196.903
G1 X72.574 Y195.345
G1 X72.848 Y193.790
G1 X73.139 Y192.238
G1 X73.455 Y190.692
G1 X73.792 Y189.167
G1 X74.149 Y187.645
G1 X74.528 Y186.127
G1 X74.930 Y184.614
G1 X75.354 Y183.108
G1 X75.803 Y181.611
G1 X76.276 Y180.123
G1 X76.771 Y178.649
G1 X77.285 Y177.185
G1 X77.817 Y175.730
G1 X78.369 Y174.284
G1 X78.938 Y172.847
G1 X79.525 Y171.420
G1 X80.129 Y170.000
G1 X80.751 Y168.590
G1 X81.389 Y167.188
G1 X82.044 Y165.794
G1 X82.715 Y164.407
G1 X83.401 Y163.029
G1 X84.103 Y161.659
G1 X84.820 Y160.296
G1 X85.552 Y158.940
G1 X86.299 Y157.592
G1 X87.059 Y156.251
G1 X87.833 Y154.916
G1 X88.620 Y153.588
G1 X89.420 Y152.267
G1 X90.234 Y150.952
G1 X91.059 Y149.644
G1 X91.896 Y148.341
G1 X92.745 Y147.044
G1 X93.606 Y145.753
G1 X94.132 Y144.598
G1 X94.150 Y143.495
G1 X93.484 Y142.084
G1 X92.832 Y140.664
G1 X92.179 Y139.242
G1 X91.512 Y137.830
G1 X90.817 Y136.434
G1 X90.079 Y135.063
G1 X89.285 Y133.728
G1 X88.421 Y132.435
G1 X87.473 Y131.195
G1 X86.426 Y130.015
G1 X85.267 Y128.905
G1 X84.208 Y127.982
G1 X83.142 Y127.066
G1 X82.074 Y126.154
G1 X81.007 Y125.240
G1 X79.945 Y124.322
G1 X78.890 Y123.396
G1 X77.846 Y122.457
G1 X76.779 Y121.348
G1 X75.925 Y120.131
G1 X75.342 Y118.804
G1 X75.086 Y117.367
G1 X75.214 Y115.818
G1 X75.659 Y114.402
G1 X76.334 Y113.231
G1 X77.228 Y112.280
G1 X78.329 Y111.527
G1 X79.624 Y110.946
G1 X81.103 Y110.515
G1 X82.611 Y110.196
G1 X84.116 Y109.941
G1 X85.619 Y109.749
G1 X87.120 Y109.617
G1 X88.620 Y109.541
G1 X90.118 Y109.521
G1 X91.616 Y109.554
G1 X93.112 Y109.636
G1 X94.608 Y109.767
G1 X96.105 Y109.943
G1 X97.601 Y110.161
G1 X99.097 Y110.421
G1 X100.552 Y110.701
G1 X102.004 Y110.990
G1 X103.456 Y111.277
G1 X104.909 Y111.549
G1 X106.365 Y111.795
G1 X107.827 Y112.004
G1 X109.296 Y112.163
G1 X110.774 Y112.261
G1 X112.264 Y112.285
G1 X113.767 Y112.225
G1 X115.216 Y112.139
G1 X116.669 Y112.084
G1 X118.123 Y112.049
G1 X119.578 Y112.025
G1 X121.034 Y112.003
G1 X122.487 Y111.973
G1 X123.939 Y111.927
G1 X125.388 Y111.854
G1 X126.832 Y111.745
G1 X128.271 Y111.592
G1 X129.852 Y111.342
G1 X131.407 Y110.989
G1 X132.928 Y110.536
G1 X134.409 Y109.984
G1 X135.845 Y109.335
G1 X137.229 Y108.591
G1 X138.554 Y107.754
G1 X139.815 Y106.825
G1 X141.006 Y105.806
G1 X142.120 Y104.700
G1 X143.136 Y103.592
G1 X144.135 Y102.467
G1 X145.119 Y101.328
G1 X146.088 Y100.176
G1 X147.045 Y99.012
G1 X147.991 Y97.838
G1 X148.928 Y96.655
G1 X149.858 Y95.465
G1 X150.781 Y94.270
G1 X151.699 Y93.071
G1 X152.615 Y91.870
G1 X153.530 Y90.668
G1 X154.445 Y89.467
G1 X155.362 Y88.268
G1 X156.283 Y87.072
G1 X157.149 Y85.910
G1 X157.985 Y84.720
G1 X158.802 Y83.514
G1 X159.614 Y82.305
G1 X160.433 Y81.104
G1 X161.272 Y79.923
G1 X162.143 Y78.774
G1 X163.058 Y77.669
G1 X164.031 Y76.619
G1 X165.111 Y75.618
G1 X166.281 Y74.696
G1 X167.523 Y73.844
G1 X168.820 Y73.053
G1 X170.154 Y72.315
G1 X171.508 Y71.622
G1 X172.863 Y70.966
G1 X174.297 Y70.286
G1 X175.733 Y69.608
G1 X177.170 Y68.934
G1 X178.608 Y68.262
G1 X180.048 Y67.593
G1 X181.490 Y66.928
G1 X182.932 Y66.265
G1 X184.377 Y65.605
G1 X185.822 Y64.949
G1 X187.269 Y64.295
G1 X188.718 Y63.645
G1 X190.168 Y62.998
G1 X191.619 Y62.354
G1 X193.072 Y61.714
G1 X194.526 Y61.077
G1 X195.981 Y60.444
G1 X197.438 Y59.813
G1 X198.897 Y59.187
G1 X200.337 Y58.565
G1 X201.774 Y57.936
G1 X203.206 Y57.299
G1 X204.635 Y56.655
G1 X206.061 Y56.004
G1 X207.483 Y55.346
G1 X208.902 Y54.682
G1 X210.318 Y54.011
G1 X211.730 Y53.335
G1 X213.140 Y52.652
G1 X214.547 Y51.964
G1 X215.951 Y51.271
G1 X217.353 Y50.572
G1 X218.752 Y49.869
G1 X220.149 Y49.161
G1 X221.544 Y48.448
G1 X222.937 Y47.731
G1 X224.328 Y47.010
G1 X225.717 Y46.286
G1 X227.104 Y45.557
G1 X228.490 Y44.826
G1 X229.875 Y44.091
G1 X231.258 Y43.354
G1 X232.640 Y42.613
G1 X233.990 Y41.955
G1 X235.392 Y41.387
G1 X236.836 Y40.894
G1 X238.308 Y40.462
G1 X239.798 Y40.077
G1 X241.293 Y39.724
G1 X242.782 Y39.389
G1 X244.145 Y39.221
G1 X245.471 Y39.349
G1 X246.687 Y39.814
G1 X247.721 Y40.658
G1 X248.500 Y41.923
G1 X248.811 Y43.334
G1 X248.596 Y44.610
G1 X248.018 Y45.785
G1 X247.239 Y46.895
G1 X246.421 Y47.974
G1 X245.596 Y48.716
G1 X244.647 Y49.373
G1 X243.542 Y50.324
G1 X242.641 Y51.381
G1 X242.109 Y52.641
G1 X242.107 Y54.202
G1 X242.018 Y55.745
G1 X241.213 Y56.876
G1 X239.856 Y57.665
G1 X238.707 Y58.156
G1 X237.572 Y58.678
G1 X236.441 Y59.208
G1 X235.255 Y59.924
G1 X234.512 Y60.821
G1 X234.202 Y62.000
G1 X234.317 Y63.558
G1 X234.450 Y65.075
G1 X234.302 Y66.485
G1 X233.903 Y67.795
G1 X233.289 Y69.011
G1 X232.490 Y70.138
G1 X231.541 Y71.183
G1 X230.474 Y72.151
G1 X229.322 Y73.048
G1 X228.309 Y73.939
G1 X227.705 Y74.894
G1 X227.555 Y75.981
G1 X227.902 Y77.271
G1 X226.501 Y77.723
G1 X225.421 Y78.446
G1 X224.577 Y79.386
G1 X223.884 Y80.487
G1 X223.257 Y81.694
G1 X222.611 Y82.950
G1 X221.863 Y84.202
G1 X223.112 Y84.619
G1 X224.223 Y84.988
G1 X225.262 Y85.140
G1 X226.749 Y85.117
G1 X228.235 Y85.088
G1 X229.722 Y85.054
G1 X231.208 Y85.016
G1 X232.695 Y84.975
G1 X234.182 Y84.933
G1 X235.668 Y84.890
G1 X237.155 Y84.849
G1 X238.642 Y84.811
G1 X240.128 Y84.776
G1 X241.615 Y84.747
G1 X243.102 Y84.723
G1 X244.588 Y84.708
G1 X246.075 Y84.702
G1 X247.652 Y84.703
G1 X249.228 Y84.709
G1 X250.804 Y84.720
G1 X252.379 Y84.737
G1 X253.954 Y84.760
G1 X255.528 Y84.789
G1 X257.102 Y84.825
G1 X258.675 Y84.869
G1 X260.248 Y84.920
G1 X261.821 Y84.979
G1 X263.393 Y85.046
G1 X264.965 Y85.122
G1 X266.537 Y85.207
G1 X268.108 Y85.301
G1 X269.679 Y85.405
G1 X271.250 Y85.520
G1 X272.820 Y85.645
G1 X274.390 Y85.781
G1 X275.960 Y85.928
G1 X277.529 Y86.087
G1 X279.099 Y86.258
G1 X280.668 Y86.442
G1 X282.236 Y86.639
G1 X283.805 Y86.849
G1 X285.374 Y87.072
G1 X286.957 Y87.312
G1 X288.535 Y87.566
G1 X290.106 Y87.836
G1 X291.670 Y88.123
G1 X293.228 Y88.427
G1 X294.778 Y88.751
G1 X296.321 Y89.095
G1 X297.857 Y89.461
G1 X299.384 Y89.850
G1 X300.904 Y90.263
G1 X302.414 Y90.701
G1 X303.917 Y91.166
G1 X305.410 Y91.658
G1 X306.894 Y92.179
G1 X308.369 Y92.731
G1 X309.834 Y93.314
G1 X311.289 Y93.929
G1 X312.734 Y94.578
G1 X314.168 Y95.262
G1 X315.592 Y95.982
G1 X316.950 Y96.719
G1 X318.286 Y97.498
G1 X319.604 Y98.312
G1 X320.908 Y99.152
G1 X322.203 Y100.010
G1 X323.493 Y100.878
G1 X324.782 Y101.747
G1 X326.076 Y102.610
G1 X327.377 Y103.459
G1 X328.692 Y104.284
G1 X330.054 Y105.099
G1 X331.429 Y105.881
G1 X332.815 Y106.631
G1 X334.214 Y107.350
G1 X335.624 Y108.038
G1 X337.045 Y108.697
G1 X338.477 Y109.328
G1 X339.920 Y109.930
G1 X341.373 Y110.505
G1 X342.837 Y111.054
G1 X344.310 Y111.577
G1 X345.792 Y112.076
G1 X347.284 Y112.551
G1 X348.784 Y113.002
G1 X350.293 Y113.432
G1 X351.810 Y113.840
G1 X353.336 Y114.227
G1 X354.869 Y114.594
G1 X356.409 Y114.942
G1 X357.956 Y115.272
G1 X359.499 Y115.569
G1 X361.044 Y115.822
G1 X362.591 Y116.035
G1 X364.141 Y116.209
G1 X365.691 Y116.348
G1 X367.242 Y116.453
G1 X368.795 Y116.526
G1 X370.347 Y116.571
G1 X371.899 Y116.589
G1 X373.451 Y116.583
G1 X375.002 Y116.555
G1 X376.551 Y116.508
G1 X378.099 Y116.443
G1 X379.645 Y116.364
G1 X381.188 Y116.272
G1 X382.729 Y116.170
G1 X384.266 Y116.060
G1 X385.823 Y115.929
G1 X387.376 Y115.764
G1 X388.925 Y115.566
G1 X390.470 Y115.336
G1 X392.010 Y115.074
G1 X393.545 Y114.780
G1 X395.075 Y114.455
G1 X396.599 Y114.099
G1 X398.117 Y113.712
G1 X399.628 Y113.295
G1 X401.133 Y112.848
G1 X402.631 Y112.372
G1 X404.122 Y111.867
G1 X405.604 Y111.334
G1 X407.079 Y110.772
G1 X408.545 Y110.182
G1 X410.003 Y109.566
G1 X411.451 Y108.922
G1 X412.709 Y108.439
G1 X414.028 Y108.082
G1 X415.379 Y107.827
G1 X416.732 Y107.651
G1 X418.339 Y107.363
G1 X419.836 Y106.880
G1 X421.240 Y106.233
G1 X422.569 Y105.451
G1 X423.841 Y104.566
G1 X425.073 Y103.607
G1 X426.284 Y102.604
G1 X427.435 Y101.629
G1 X428.582 Y100.648
G1 X429.728 Y99.667
G1 X430.876 Y98.689
G1 X432.031 Y97.720
G1 X433.196 Y96.763
G1 X434.373 Y95.825
G1 X435.568 Y94.910
G1 X436.782 Y94.022
G1 X438.020 Y93.167
G1 X439.286 Y92.349
G1 X440.581 Y91.573
G1 X441.911 Y90.844
G1 X443.278 Y90.166
G1 X444.718 Y89.517
G1 X446.171 Y88.918
G1 X447.636 Y88.371
G1 X449.115 Y87.880
G1 X450.608 Y87.446
G1 X452.115 Y87.072
G1 X453.638 Y86.762
G1 X455.176 Y86.517
G1 X456.731 Y86.340
G1 X458.302 Y86.235
G1 X459.891 Y86.203
G1 X461.370 Y86.196
G1 X462.850 Y86.173
G1 X464.331 Y86.139
G1 X465.813 Y86.105
G1 X467.293 Y86.077
G1 X468.772 Y86.063
G1 X470.249 Y86.072
G1 X471.722 Y86.111
G1 X473.192 Y86.189
G1 X474.657 Y86.313
G1 X476.090 Y86.479
G1 X477.520 Y86.679
G1 X478.947 Y86.909
G1 X480.371 Y87.165
G1 X481.794 Y87.441
G1 X483.214 Y87.733
G1 X484.633 Y88.038
G1 X486.051 Y88.349
G1 X487.468 Y88.663
G1 X488.884 Y88.975
G1 X490.300 Y89.281
G1 X491.655 Y89.847
G1 X492.814 Y90.786
G1 X493.889 Y92.175
G1 X494.250 Y93.417
G1 X493.502 Y94.616
G1 X492.497 Y95.659
G1 X491.367 Y96.240
